Id,Name,Latitude,Longitude,Country,CountryCode,Status,ReactorType,ReactorModel,ConstructionStartAt,OperationalFrom,OperationalTo,Capacity,LastUpdatedAt,Source,IAEAId
434,Lianyungang-2,,,China,CN,Planned,PWR,,,,,,,WNA,
584,Rostov-2 (Volgodonsk-2),47.599,42.373,Russia,RU,Operational,PWR,VVER V-320,1983-05-01,2010-12-10,,950.0,2015-05-24T04:51:35+03:00,WNA/IAEA,505.0
444,Loviisa-1,60.372,26.342,Finland,FI,Operational,PWR,VVER V-213,1971-05-01,1977-05-09,,420.0,2015-05-24T04:50:50+03:00,WNA/IAEA,157.0
645,Smolensk-3,54.169,33.245,Russia,RU,Operational,LWGR,RBMK-1000,1984-05-01,1990-10-12,,925.0,2015-05-24T04:51:36+03:00,WNA/IAEA,508.0
336,Ikata-2,33.491,132.309,Japan,JP,Shutdown,PWR,M (2-loop),1978-08-01,1982-03-19,2018-05-23,538.0,2019-06-02T20:18:50+03:00,WNA/IAEA,358.0
658,St. Lucie-1,27.348,-80.244,United States,US,Operational,PWR,CE 2LP (DRYAMB),1970-07-01,1976-12-21,,830.0,2017-02-10T23:58:47+02:00,WNA/IAEA,670.0
81,Browns Ferry-2,34.704,-87.119,United States,US,Operational,BWR,BWR-4 (Mark 1),1967-05-01,1975-03-01,,1065.0,2015-05-24T04:51:42+03:00,WNA/IAEA,618.0
150,Chooz-B2,50.086,4.792,France,FR,Operational,PWR,N4 REP 1450,1985-12-31,2000-09-29,,1455.0,2015-05-24T04:51:06+03:00,WNA/IAEA,226.0
353,Kaiga-4,14.865,74.438,India,IN,Operational,PHWR,Horizontal Pressure Tube type,2002-05-10,2011-01-20,,202.0,2015-05-24T04:54:06+03:00,WNA/IAEA,292.0
363,Kalinin-4,57.903,35.057,Russia,RU,Operational,PWR,VVER V-320,1986-08-01,2012-12-25,,950.0,2015-05-24T04:51:35+03:00,WNA/IAEA,496.0
435,Limerick-1,40.225,-75.584,United States,US,Operational,BWR,BWR-4 (Mark 2),1974-06-19,1986-02-01,,1055.0,2015-05-24T04:51:47+03:00,WNA/IAEA,678.0
422,LaSalle-2,41.246,-88.672,United States,US,Operational,BWR,BWR-5 (Mark 2),1973-09-10,1984-10-19,,1078.0,2015-05-24T04:51:48+03:00,WNA/IAEA,693.0
441,Lingen,52.483,7.302,Germany,DE,Shutdown,BWR,BWR with fossil fuel-fired superheater,1964-10-01,1968-10-01,1977-01-05,183.0,2021-02-14T03:47:53+02:00,WNA/IAEA,133.0
492,Novovoronezh-4,51.275,39.206,Russia,RU,Operational,PWR,VVER V-179,1967-07-01,1973-03-24,,385.0,2015-05-24T04:51:32+03:00,WNA/IAEA,448.0
135,Chernobyl-1,51.389,30.103,Ukraine,UA,Shutdown,LWGR,RBMK,1970-03-01,1978-05-27,1996-11-30,925.0,2015-05-24T04:51:39+03:00,WNA/IAEA,568.0
384,Koeberg-1,-33.677,18.433,South Africa,ZA,Operational,PWR,CP1,1976-07-01,1984-07-21,,921.0,2015-05-24T04:51:50+03:00,WNA/IAEA,836.0
642,Sizewell-C2,52.21939,1.6238,United Kingdom,GB,Planned,PWR,,,,,,,WNA,
487,Novovoronezh 2-1,51.273,39.197,Russia,RU,Operational,PWR,VVER V-392M,2008-06-24,2017-02-27,,1114.0,2019-11-22,WNA/IAEA,898.0
56,Biblis-B,49.709,8.415,Germany,DE,Shutdown,PWR,PWR,1972-02-01,1977-01-31,2011-08-06,1178.0,2015-05-24T04:50:42+03:00,WNA/IAEA,91.0
430,Leningrad-2,59.837,29.039,Russia,RU,Shutdown,LWGR,RBMK-1000,1970-06-01,1976-02-11,2020-11-10,925.0,2021-01-06T01:19:47+02:00,WNA/IAEA,475.0
611,Shaoguan-1,,,China,CN,Planned,PWR,,,,,,,WNA,
681,Tarapur-3,19.834,72.657,India,IN,Operational,PHWR,Horizontal Pressure Tube Type,2000-05-12,2006-08-18,,502.0,2015-05-24T04:54:06+03:00,WNA/IAEA,300.0
559,Qinshan-2-2 (Qinshan 3),30.44,120.95,China,CN,Operational,PWR,CNP-600,1997-04-01,2004-05-03,,610.0,2015-05-24T04:50:40+03:00,WNA/IAEA,66.0
377,Kashiwazaki Kariwa-7,37.434,138.598,Japan,JP,Suspended Operation,BWR,ABWR,1993-07-01,1997-07-02,,1315.0,2023-08-28T08:01:45+03:00,WNA/IAEA,384.0
590,Rivne-4,51.326,25.9,Ukraine,UA,Operational,PWR,VVER V-320,1986-08-01,2006-04-06,,950.0,2023-08-28T08:51:40+03:00,WNA/IAEA,589.0
298,Hanul-5,37.09,129.384444,South Korea,KR,Operational,PWR,OPR-1000,1999-10-01,2004-07-29,,950.0,2022-04-21T20:26:19+03:00,IAEA,404.0
539,Philippsburg-1,49.253,8.432,Germany,DE,Shutdown,BWR,BWR-69,1970-10-01,1980-03-26,2011-08-06,864.0,2015-05-24T04:50:42+03:00,WNA/IAEA,87.0
61,Bilibino-4,68.059,166.492,Russia,RU,Operational,LWGR,EGP-6,1970-01-01,1977-01-01,,11.0,2015-05-24T04:51:33+03:00,WNA/IAEA,470.0
580,Ringhals-4,57.259,12.111,Sweden,SE,Operational,PWR,WH 3LP,1973-11-01,1983-11-21,,1130.0,2021-04-20T02:47:37+03:00,WNA/IAEA,529.0
379,Khmelnitski-1,50.301,26.649,Ukraine,UA,Operational,PWR,VVER V-320,1981-11-01,1988-08-13,,950.0,2015-05-24T04:51:40+03:00,WNA/IAEA,573.0
726,Vandellos-1,40.949,0.867,Spain,ES,Shutdown,GCR,,1968-06-21,1972-08-02,1990-07-31,480.0,2015-05-24T04:50:49+03:00,WNA/IAEA,150.0
385,Koeberg-2,-33.677,18.433,South Africa,ZA,Operational,PWR,CP1,1976-07-01,1985-11-09,,921.0,2015-05-24T04:51:50+03:00,WNA/IAEA,837.0
445,Loviisa-2,60.372,26.342,Finland,FI,Operational,PWR,VVER V-213,1972-08-01,1981-01-05,,420.0,2015-05-24T04:50:50+03:00,WNA/IAEA,158.0
536,Penly-3,49.977611,1.21409,France,FR,Planned,PWR,,,,,,,WNA,
653,St. Alban-2,45.404,4.754,France,FR,Operational,PWR,P4 REP 1300,1979-07-31,1987-03-01,,1335.0,2015-05-24T04:51:01+03:00,WNA/IAEA,205.0
453,McGuire-2,35.433,-80.946,United States,US,Operational,PWR,WH 4LP (ICECND),1971-04-01,1984-03-01,,1180.0,2017-02-10T23:58:55+02:00,WNA/IAEA,691.0
206,Enrico Fermi,45.183333,8.283333,Italy,IT,Shutdown,PWR,WH 4LP,1961-07-01,1965-01-01,1990-07-01,247.0,2017-02-10T23:56:19+02:00,IAEA,326.0
533,Pengze-2,,,China,CN,Planned,PWR,AP-1000,,,,,,WNA,
92,Brunswick-1,33.958,-78.007,United States,US,Operational,BWR,BWR-4 (Mark 1),1970-02-07,1977-03-18,,821.0,2015-05-24T04:51:46+03:00,WNA/IAEA,662.0
249,Genkai-3,33.518,129.837,Japan,JP,Operational,PWR,M (4-loop),1988-06-01,1994-03-18,,1127.0,2015-05-24T04:51:29+03:00,WNA/IAEA,372.0
183,Doel-4,51.323,4.259,Belgium,BE,Operational,PWR,WH 3LP,1978-12-01,1985-07-01,,1000.0,2017-02-10T23:55:43+02:00,WNA/IAEA,14.0
411,Kumharia-4,,,India,IN,Planned,PHWR,,,,,,,WNA,
367,Kaminoseki-1,,,Japan,JP,Planned,ABWR,,,,,,,WNA,
398,Kozloduy-5,43.744,23.776,Bulgaria,BG,Operational,PWR,VVER V-320,1980-07-09,1988-12-23,,953.0,2022-04-21T20:26:19+03:00,WNA/IAEA,20.0
160,Cruas-2,44.634,4.757,France,FR,Operational,PWR,CP2,1978-11-15,1985-04-01,,915.0,2015-05-24T04:50:59+03:00,WNA/IAEA,199.0
70,Bohunice-A1,48.494,17.687,Slovakia,SK,Shutdown,HWGCR,KS 150,1958-08-01,1972-12-25,1977-02-22,110.0,2015-05-24T04:51:38+03:00,WNA/IAEA,543.0
311,Higashi Dori-2 (Tokyo),41.1856,141.389,Japan,JP,Planned,ABWR,,,,,,,WNA,
133,CHASNUPP-3,32.392,71.465,Pakistan,PK,Operational,PWR,CNP-300,2011-05-28,2016-12-06,,315.0,2021-06-07,WNA/IAEA,1044.0
45,Belleville-2,47.511,2.871,France,FR,Operational,PWR,P4 REP 1300,1980-08-01,1989-01-01,,1310.0,2015-05-24T04:51:02+03:00,WNA/IAEA,212.0
71,BONUS,18.365,-67.268,United States,US,Shutdown,BWR,Superheater,1960-01-01,1965-09-01,1968-06-01,17.0,2021-06-06,WNA/IAEA,703.0
267,Greifswald-3,54.143,13.668,Germany,DE,Shutdown,PWR,VVER V-230,1972-04-01,1978-05-01,1990-02-28,408.0,2015-05-24T04:50:47+03:00,WNA/IAEA,125.0
358,Kakrapar-3,21.236,73.351,India,IN,Operational,PHWR,PHWR-700,2010-11-22,,,630.0,2021-02-14T03:47:53+02:00,WNA/IAEA,986.0
424,Leibstadt,47.601,8.183,Switzerland,CH,Operational,BWR,BWR-6,1974-01-01,1984-12-15,,960.0,2015-05-24T04:50:39+03:00,WNA/IAEA,59.0
728,Vermont Yankee,42.779,-72.514,United States,US,Shutdown,BWR,BWR-4 (Mark 1),1967-12-11,1972-11-30,2014-12-29,514.0,2015-05-24T04:51:42+03:00,WNA/IAEA,626.0
137,Chernobyl-3,51.389,30.103,Ukraine,UA,Shutdown,LWGR,RBMK,1976-03-01,1982-06-08,2000-12-15,925.0,2015-05-24T04:51:40+03:00,WNA/IAEA,575.0
84,Bruce-2,44.341,-81.572,Canada,CA,Operational,PHWR,CANDU 791,1970-12-01,1977-09-01,,732.0,2022-04-21T20:26:19+03:00,WNA/IAEA,54.0
167,Dampierre-4,47.732,2.513,France,FR,Operational,PWR,CP1,1975-12-01,1981-11-20,,890.0,2015-05-24T04:50:53+03:00,WNA/IAEA,186.0
166,Dampierre-3,47.732,2.513,France,FR,Operational,PWR,CP1,1975-09-01,1981-05-27,,890.0,2015-05-24T04:50:53+03:00,WNA/IAEA,185.0
29,Balakovo-4,52.092,47.952,Russia,RU,Operational,PWR,VVER V-320,1984-04-01,1993-12-22,,950.0,2015-05-24T04:51:36+03:00,WNA/IAEA,527.0
452,McGuire-1,35.433,-80.946,United States,US,Operational,PWR,WH 4LP (ICECND),1971-04-01,1981-12-01,,1180.0,2017-02-10T23:58:55+02:00,WNA/IAEA,690.0
195,Dukovany-3,49.089,16.149,Czechia,CZ,Operational,PWR,VVER V-213,1979-03-01,1986-12-20,,420.0,2015-05-24T04:50:42+03:00,WNA/IAEA,80.0
246,GE Vallecitos,37.613056,-121.84,United States,US,Shutdown,BWR,25,1956-01-01,1957-10-19,1963-12-09,24.0,2021-06-06,IAEA,893.0
524,Paluel-1,49.857,0.635,France,FR,Operational,PWR,P4 REP 1300,1977-08-15,1985-12-01,,1330.0,2015-05-24T04:50:57+03:00,WNA/IAEA,191.0
321,Hongyanhe-2,39.797,121.4765,China,CN,Operational,PWR,CPR-1000,2008-03-28,2014-05-13,,1061.0,2015-08-23T03:28:28+03:00,WNA/IAEA/GEO,905.0
138,Chernobyl-4,51.389,30.103,Ukraine,UA,Shutdown,LWGR,RBMK,1979-04-01,1984-03-26,1986-04-26,925.0,2015-05-24T04:51:40+03:00,WNA/IAEA,576.0
419,Laguna Verde-1,19.719,-96.405,Mexico,MX,Operational,BWR,BWR-5,1976-09-30,1990-07-28,,780.0,2022-04-21T20:26:19+03:00,WNA/IAEA,420.0
447,Lungmen-1,25.038,121.924,Taiwan,TW,Suspended Construction,BWR,ABWR,1999-03-31,,,1300.0,2021-02-04T04:51:39+02:00,WNA/IAEA,560.0
142,Chinon-A2,47.232,0.167,France,FR,Shutdown,GCR,UNGG,1959-08-01,1965-02-24,1985-06-14,170.0,2015-05-24T04:50:53+03:00,WNA/IAEA,184.0
785,KANUPP-3,24.845,66.79,Pakistan,PK,Operational,PWR,ACP-1000,2016-05-31,2022-04-18,,1014.0,2022-09-24T22:33:57+03:00,IAEA,1068.0
7,Akkuyu-2,36.144444,33.541111,Türkiye,TR,Under Construction,PWR,VVER V-509,2020-04-08,,,1114.0,2020-08-31T01:39:56+03:00,Wikipedia/IAEA,1080.0
528,Pathfinder,43.603,-96.636,United States,US,Shutdown,BWR,Prototype,1959-01-01,1966-08-01,1967-10-01,59.0,2017-02-10T23:57:35+02:00,WNA/IAEA,598.0
448,Lungmen-2,25.038,121.924,Taiwan,TW,Suspended Construction,BWR,ABWR,1999-08-30,,,1300.0,2021-02-04T04:51:39+02:00,WNA/IAEA,561.0
292,Hanbit-5,35.405,126.41,South Korea,KR,Operational,PWR,OPR-1000,1997-06-29,2002-05-21,,950.0,2023-08-28T08:01:45+03:00,IAEA,402.0
74,Bradwell-1,51.742,0.899,United Kingdom,GB,Shutdown,GCR,MAGNOX,1957-01-01,1962-07-01,2002-03-31,150.0,2015-05-24T04:51:19+03:00,WNA/IAEA,266.0
744,Wolsong-4,35.71,129.476,South Korea,KR,Operational,PHWR,CANDU 6,1994-07-22,1999-10-01,,669.0,2022-04-21T20:26:19+03:00,WNA/IAEA,401.0
266,Greifswald-2,54.143,13.668,Germany,DE,Shutdown,PWR,VVER V-230,1970-03-01,1975-04-16,1990-02-14,408.0,2015-05-24T04:50:47+03:00,WNA/IAEA,124.0
147,Chinon-B4,47.232,0.167,France,FR,Operational,PWR,CP2,1981-02-01,1988-04-01,,905.0,2015-05-24T04:51:03+03:00,WNA/IAEA,214.0
595,San Onofre-3,33.368,-117.556,United States,US,Shutdown,PWR,CE (2-loop) DRYAMB,1974-03-01,1984-04-01,2013-06-07,1070.0,2015-05-24T04:54:11+03:00,WNA/IAEA,684.0
236,Fukushima Daini-4,37.315,141.024,Japan,JP,Shutdown,BWR,BWR-5,1981-05-28,1987-08-25,2019-09-30,1067.0,2020-04-18T04:46:52+03:00,WNA/IAEA,364.0
222,Forsmark-2,60.405,18.168,Sweden,SE,Operational,BWR,"AA-III, BWR-2500",1975-01-01,1981-07-07,,900.0,2018-03-10T14:51:47+02:00,WNA/IAEA,530.0
304,Heysham-A1,54.029,-2.912,United Kingdom,GB,Operational,GCR,AGR,1970-12-01,1989-04-01,,611.0,2015-05-24T04:51:18+03:00,WNA/IAEA,256.0
390,Kori-1,35.321,129.295,South Korea,KR,Shutdown,PWR,WH 60,1972-08-01,1978-04-29,2017-06-18,558.0,2017-09-25T03:19:42+03:00,WNA/IAEA,394.0
134,CHASNUPP-4,32.391944,71.461667,Pakistan,PK,Operational,PWR,CNP-300,2011-12-18,2017-09-19,,313.0,2021-06-07,IAEA,1045.0
636,Sinop-3,42.0,35.0,Türkiye,TR,Planned,PWR,ATMEA-1,,,,,,Wikipedia,
572,Rajasthan-6,24.876,75.608,India,IN,Operational,PHWR,Horizontal Pressure Tube type,2003-01-20,2010-03-31,,202.0,2015-05-24T04:54:06+03:00,WNA/IAEA,297.0
600,Sanming-1,,,China,CN,Planned,FBR,,,,,,,WNA,
762,Yanjiashan-1,,,China,CN,Planned,PWR,,,,,,,WNA,
749,Wuhu-2,,,China,CN,Planned,PWR,,,,,,,WNA,
42,Belene-1,43.62453,25.18675,Bulgaria,BG,Cancelled Construction,PWR,,1987-01-01,,,953.0,2021-02-14T00:57:00+02:00,WNA/IAEA,
701,Tomari-3,43.038,140.515,Japan,JP,Suspended Operation,PWR,M (3-loop),2004-11-18,2009-12-22,,866.0,2022-09-24T22:33:57+03:00,WNA/IAEA,856.0
110,Calvert Cliffs-1,38.435,-76.439,United States,US,Operational,PWR,CE 2LP (DRYAMB),1968-06-01,1975-05-08,,845.0,2017-02-10T23:58:35+02:00,WNA/IAEA,655.0
606,Sendai-2,31.834,130.193,Japan,JP,Operational,PWR,M (3-loop),1981-10-12,1985-11-28,,846.0,2015-05-24T04:51:29+03:00,WNA/IAEA,363.0
57,Big Rock Point,45.359,-85.195,United States,US,Shutdown,BWR,,1960-05-01,1963-03-29,1997-08-29,72.0,2015-05-24T04:51:41+03:00,WNA/IAEA,601.0
262,Gravelines-4,51.014,2.138,France,FR,Operational,PWR,CP1,1976-04-01,1981-10-01,,910.0,2015-05-24T04:50:53+03:00,WNA/IAEA,182.0
283,Hamaoka-2,34.621,138.141,Japan,JP,Shutdown,BWR,BWR-4,1974-06-14,1978-11-29,2009-01-30,814.0,2015-05-24T04:51:28+03:00,WNA/IAEA,349.0
413,Kuosheng-2,25.203,121.662,Taiwan,TW,Shutdown,BWR,BWR-6,1976-03-15,1983-03-16,2023-03-15,948.0,2023-08-28T08:01:45+03:00,WNA/IAEA,557.0
25,Atucha-2,-33.967,-59.209,Argentina,AR,Operational,PHWR,PHWR KWU,1981-07-13,2016-05-25,,692.0,2023-08-28T08:01:45+03:00,WNA/IAEA,5.0
287,Hamaoka-6,34.621,138.141,Japan,JP,Planned,ABWR,,,,,,,WNA,
354,Kaiga-5,14.868,74.4418,India,IN,Planned,PWR,,,,,,,WNA,
359,Kakrapar-4,21.236,73.351,India,IN,Under Construction,PHWR,PHWR-700,2010-11-22,,,630.0,2015-05-24T04:51:57+03:00,WNA/IAEA,987.0
52,Berkeley-2,51.692,-2.494,United Kingdom,GB,Shutdown,GCR,MAGNOX,1957-01-01,1962-10-20,1988-10-26,138.0,2015-05-24T04:51:19+03:00,WNA/IAEA,265.0
334,Ignalina-3,55.604,26.562,Lithuania,LT,Cancelled Construction,LWGR,RBMK-1500,1985-06-01,,,1380.0,2021-02-14T01:18:00+02:00,WNA/IAEA,
746,Wolsong-6,35.7101,129.481,South Korea,KR,Planned,PHWR,,,,,,,WNA,
780,Fangchenggang-3,21.6,108.3,China,CN,Operational,PWR,HPR1000,2015-12-24,2023-03-25,,1000.0,2023-08-28T08:01:45+03:00,IAEA,945.0
676,Taohuajiang-2,,,China,CN,Planned,PWR,AP-1000,,,,,,WNA,
337,Ikata-3,33.491,132.309,Japan,JP,Operational,PWR,M (3-loop),1990-10-01,1994-12-15,,846.0,2015-05-24T04:51:29+03:00,WNA/IAEA,374.0
288,Hanbit-1,35.405,126.41,South Korea,KR,Operational,PWR,WH F,1981-06-04,1986-08-25,,903.0,2022-04-21T20:26:19+03:00,IAEA,411.0
19,Armenian-1,40.182,44.147,Armenia,AM,Shutdown,PWR,VVER V-270,1969-07-01,1977-10-06,1989-02-25,376.0,2021-06-07,WNA/IAEA,1.0
588,Rivne-2,51.326,25.9,Ukraine,UA,Operational,PWR,VVER V-213,1973-10-01,1982-07-29,,384.0,2023-08-28T08:51:40+03:00,WNA/IAEA,571.0
743,Wolsong-3,35.71,129.476,South Korea,KR,Operational,PHWR,CANDU 6,1994-03-17,1998-07-01,,665.0,2022-04-21T20:26:19+03:00,WNA/IAEA,400.0
85,Bruce-3,44.341,-81.572,Canada,CA,Operational,PHWR,CANDU 750A,1972-07-01,1978-02-01,,750.0,2022-04-21T20:26:19+03:00,WNA/IAEA,30.0
62,Blayais-1,45.256,-0.691,France,FR,Operational,PWR,CP1,1977-01-01,1981-12-01,,910.0,2015-05-24T04:50:53+03:00,WNA/IAEA,187.0
586,Rostov-4 (Volgodonsk-4),47.599,42.373,Russia,RU,Operational,PWR,VVER V-320,2010-06-16,2018-09-28,,950.0,2019-06-02T20:19:20+03:00,WNA/IAEA,507.0
294,Hanul-1,37.09,129.384444,South Korea,KR,Operational,PWR,France CPI,1983-01-26,1988-09-10,,903.0,2022-04-21T20:26:19+03:00,IAEA,413.0
450,Maanshan-2,25.038,121.924,Taiwan,TW,Operational,PWR,WH 3LP (WE 312),1979-02-21,1985-05-18,,938.0,2021-04-20T02:47:37+03:00,WNA/IAEA,559.0
184,Donald Cook-1,41.975,-86.564,United States,US,Operational,PWR,WH 4LP (ICECDN),1969-03-25,1975-08-28,,1030.0,2017-02-10T23:58:31+02:00,WNA/IAEA,653.0
316,Hinkley Point-C1,51.2087,-3.1305,United Kingdom,GB,Under Construction,PWR,EPR-1750,2018-12-11,,,1630.0,2019-06-02T20:18:41+03:00,WNA/IAEA,1072.0
503,Oldbury-A1,51.649,-2.567,United Kingdom,GB,Shutdown,GCR,MAGNOX,1962-05-01,1967-12-31,2012-02-29,300.0,2015-05-24T04:51:11+03:00,WNA/IAEA,237.0
225,Fort St. Vrain,40.244,-104.874,United States,US,Shutdown,HTGR,,1968-09-01,1979-07-01,1989-08-29,330.0,2015-05-24T04:51:42+03:00,WNA/IAEA,623.0
427,Leningrad 2-3,59.837,29.039,Russia,RU,Planned,PWR,VVER V-491,,,,1085.0,,Wikipedia,
654,St. Laurent-A1,47.724,1.582,France,FR,Shutdown,GCR,UNGG,1963-10-01,1969-06-01,1990-04-18,480.0,2015-05-24T04:51:06+03:00,WNA/IAEA,225.0
619,Shimane-1,35.537,132.999,Japan,JP,Shutdown,BWR,BWR-3,1970-07-02,1974-03-29,2015-04-30,439.0,2015-05-24T04:51:30+03:00,WNA/IAEA,387.0
331,Hunterston-B2,55.722,-4.893,United Kingdom,GB,Shutdown,GCR,AGR,1967-11-01,1977-04-01,2022-01-07,624.0,2022-04-21T20:26:19+03:00,WNA/IAEA,247.0
446,Lucens,46.693,6.827,Switzerland,CH,Shutdown,HWGCR,HWGCR: 2-loops,1962-04-01,,1969-01-21,6.0,2015-05-24T04:51:57+03:00,WNA/IAEA,966.0
496,Oconee-2,34.796,-82.894,United States,US,Operational,PWR,B&W LLP (DRYAMB),1967-11-06,1974-09-09,,887.0,2017-02-10T23:58:08+02:00,WNA/IAEA,625.0
178,Diablo Canyon-1,35.212,-120.854,United States,US,Operational,PWR,WH 4LP (DRYAMB),1968-04-23,1985-05-07,,1084.0,2017-02-10T23:58:09+02:00,WNA/IAEA,628.0
550,Piqua,40.132222,-84.234722,United States,US,Shutdown,OCR,OCM (Organically Cooled and Moderated Reactor),1960-01-01,1963-11-01,1966-01-01,11.0,2015-05-24T04:54:13+03:00,IAEA,894.0
406,Kudankulam-5,8.16627,77.708,India,IN,Under Construction,PWR,VVERV412,2021-06-29,,,917.0,2022-09-24T22:33:57+03:00,WNA/IAEA,1108.0
165,Dampierre-2,47.732,2.513,France,FR,Operational,PWR,CP1,1975-04-01,1981-02-16,,890.0,2015-05-24T04:50:53+03:00,WNA/IAEA,183.0
250,Genkai-4,33.518,129.837,Japan,JP,Operational,PWR,M (4-loop),1992-07-15,1997-07-25,,1127.0,2015-05-24T04:51:29+03:00,WNA/IAEA,373.0
708,Tricastin-3,44.331,4.733,France,FR,Operational,PWR,CP1,1975-04-01,1981-05-11,,915.0,2015-05-24T04:50:53+03:00,WNA/IAEA,179.0
717,Turkey Point-3,25.435,-80.33,United States,US,Operational,PWR,WH 3LP (DRYAMB),1967-04-27,1972-12-14,,693.0,2017-02-10T23:57:56+02:00,WNA/IAEA,613.0
75,Bradwell-2,51.742,0.899,United Kingdom,GB,Shutdown,GCR,MAGNOX,1957-01-01,1962-11-12,2002-03-30,150.0,2015-05-24T04:51:19+03:00,WNA/IAEA,267.0
547,Pickering-7,43.812,-79.07,Canada,CA,Operational,PHWR,CANDU 500B,1976-03-01,1985-01-01,,516.0,2015-05-24T04:50:23+03:00,WNA/IAEA,35.0
801,CAP1400-2,36.965556,122.52,China,CN,Under Construction,PWR,CAP1400,2013-03-22,,,1534.0,2021-04-20T02:47:37+03:00,IAEA/Wikipedia,1086.0
106,Calder Hall-2,54.42,-3.491,United Kingdom,GB,Shutdown,GCR,MAGNOX,1953-08-01,1957-02-01,2003-03-31,35.0,2015-05-24T04:51:09+03:00,WNA/IAEA,232.0
116,Catawba-2,35.053,-81.071,United States,US,Operational,PWR,WH 4LP (ICECND),1974-05-01,1986-08-19,,1145.0,2017-02-10T23:59:14+02:00,WNA/IAEA,714.0
308,Higashi Dori-1 (Tohoku),41.188,141.393,Japan,JP,Suspended Operation,BWR,BWR-5,2000-11-07,2005-12-08,,1067.0,2022-12-30T02:21:21+02:00,WNA/IAEA,841.0
94,Bugey-1,45.796,5.268,France,FR,Shutdown,GCR,UNGG,1965-12-01,1972-07-01,1994-05-27,540.0,2015-05-24T04:51:08+03:00,WNA/IAEA,230.0
414,Kursk-1,51.674,35.607,Russia,RU,Shutdown,LWGR,RBMK-1000,1972-06-01,1977-10-12,2021-12-19,925.0,2022-09-24T22:33:57+03:00,WNA/IAEA,476.0
91,Brunsbuettel,53.891,9.202,Germany,DE,Shutdown,BWR,BWR-69,1970-04-15,1977-02-09,2011-08-06,770.0,2015-05-24T04:50:42+03:00,WNA/IAEA,86.0
433,Lianyungang-1,,,China,CN,Planned,PWR,,,,,,,WNA,
747,Wuergassen,51.639,9.393,Germany,DE,Shutdown,BWR,,1968-01-26,1975-11-11,1994-08-26,640.0,2015-05-24T04:50:48+03:00,WNA/IAEA,136.0
756,Yangjiang-1,21.706,112.256,China,CN,Operational,PWR,CPR-1000,2008-12-16,2014-03-25,,1021.0,2015-05-24T04:51:52+03:00,WNA/IAEA,881.0
694,Tihange-1,50.533,5.271,Belgium,BE,Operational,PWR,Framatome 3 loops reactor,1970-06-01,1975-10-01,,870.0,2015-05-24T04:54:04+03:00,WNA/IAEA,10.0
499,Ohi-2,35.544,135.652,Japan,JP,Shutdown,PWR,WH 4LP,1972-12-08,1979-12-05,2018-03-01,1120.0,2019-06-02T20:19:18+03:00,WNA/IAEA,343.0
497,Oconee-3,34.796,-82.894,United States,US,Operational,PWR,B&W LLP (DRYAMB),1967-11-06,1974-12-16,,887.0,2017-02-10T23:58:18+02:00,WNA/IAEA,636.0
12,Almaraz-2,39.807,-5.698,Spain,ES,Operational,PWR,WH 3LP,1973-07-03,1984-07-01,,900.0,2019-06-02T20:17:55+03:00,WNA/IAEA,154.0
535,Penly-2,49.975,1.215,France,FR,Operational,PWR,P4 REP 1300,1984-08-01,1992-11-01,,1330.0,2015-05-24T04:51:05+03:00,WNA/IAEA,222.0
44,Belleville-1,47.511,2.871,France,FR,Operational,PWR,P4 REP 1300,1980-05-01,1988-06-01,,1310.0,2015-05-24T04:51:02+03:00,WNA/IAEA,211.0
43,Belene-2,43.62453,25.1865,Bulgaria,BG,Cancelled Construction,PWR,,1987-03-31,,,953.0,2021-02-14T00:57:00+02:00,WNA/IAEA,
169,Darlington-1,43.867,-78.724,Canada,CA,Operational,PHWR,CANDU 850,1982-04-01,1992-11-14,,881.0,2015-05-24T04:50:25+03:00,WNA/IAEA,43.0
709,Tricastin-4,44.331,4.733,France,FR,Operational,PWR,CP1,1975-05-01,1981-11-01,,915.0,2015-05-24T04:50:53+03:00,WNA/IAEA,180.0
617,Shika-1,37.061,136.728,Japan,JP,Suspended Operation,BWR,BWR-5,1989-07-01,1993-07-30,,505.0,2022-12-30T02:24:37+02:00,WNA/IAEA,375.0
796,Cernavoda-5,44.322,28.061,Romania,RO,Cancelled Construction,PHWR,,1987-05-12,,,655.0,2021-02-14T01:01:00+02:00,IAEA/Wikipedia,
180,Doel-1,51.323,4.259,Belgium,BE,Operational,PWR,WH 2LP,1969-07-01,1975-02-15,,392.0,2017-02-10T23:55:14+02:00,WNA/IAEA,9.0
534,Penly-1,49.975,1.215,France,FR,Operational,PWR,P4 REP 1300,1982-09-01,1990-12-01,,1330.0,2015-05-24T04:51:05+03:00,WNA/IAEA,221.0
543,Pickering-3,43.812,-79.07,Canada,CA,Shutdown,PHWR,CANDU 500A,1967-12-01,1972-06-01,2008-10-31,508.0,2015-05-24T04:50:36+03:00,WNA/IAEA,51.0
179,Diablo Canyon-2,35.212,-120.854,United States,US,Operational,PWR,WH 4LP (DRYAMB),1970-12-09,1986-03-13,,1106.0,2017-02-10T23:58:39+02:00,WNA/IAEA,660.0
651,South Ukraine-3,47.811,31.22,Ukraine,UA,Operational,PWR,VVER V-320,1984-11-01,1989-12-29,,950.0,2015-05-24T04:51:40+03:00,WNA/IAEA,579.0
776,Zaporozhye-6,47.508,34.627,Ukraine,UA,Operational,PWR,VVER V-320,1986-06-01,1996-09-17,,950.0,2015-05-24T04:51:39+03:00,WNA/IAEA,567.0
259,Gravelines-1,51.014,2.138,France,FR,Operational,PWR,CP1,1975-02-01,1980-11-25,,910.0,2015-05-24T04:50:52+03:00,WNA/IAEA,174.0
362,Kalinin-3,57.903,35.057,Russia,RU,Operational,PWR,VVER V-320,1985-10-01,2005-11-08,,950.0,2015-05-24T04:51:34+03:00,WNA/IAEA,495.0
475,Ningde-1,27.046,120.287,China,CN,Operational,PWR,CPR-1000,2008-02-18,2013-04-15,,1018.0,2015-05-24T04:51:56+03:00,WNA/IAEA,921.0
16,APS-1 Obninsk,55.084,36.57,Russia,RU,Shutdown,LWGR,AM-1,1951-01-01,1954-12-01,2002-04-29,5.0,2015-05-24T04:51:32+03:00,WNA/IAEA,447.0
4,Akhvaz-1,,,Iran,IR,Planned,,,,,,,,WNA,
338,Indian Point-1,41.27,-73.95,United States,US,Shutdown,PWR,PWR,1956-05-01,1962-10-01,1974-10-31,265.0,2015-05-24T04:51:43+03:00,WNA/IAEA,643.0
258,Grand Gulf-1,32.007,-91.045,United States,US,Operational,BWR,BWR-6 (Mark 3),1974-05-04,1985-07-01,,1250.0,2015-05-24T04:51:49+03:00,WNA/IAEA,715.0
508,Olkiluoto-4,61.234352,21.436287,Finland,FI,Planned,,,,,,,,WNA,
538,Phenix,44.142,4.712,France,FR,Shutdown,FBR,PH-250,1968-11-01,1974-07-14,2010-02-01,233.0,2015-05-24T04:50:50+03:00,WNA/IAEA,162.0
647,South Texas-1,28.797,-96.044,United States,US,Operational,PWR,WH 4LP (DRYAMB),1975-12-22,1988-08-25,,1250.0,2017-02-10T23:59:20+02:00,WNA/IAEA,764.0
481,Nizhny Novgorod-1,55.786863,42.37215,Russia,RU,Planned,PWR,,,,,,2021-06-07,WNA,
697,Tokai-1,36.466,140.612,Japan,JP,Shutdown,GCR,MAGNOX,1961-03-01,1966-07-25,1998-03-31,159.0,2015-05-24T04:51:27+03:00,WNA/IAEA,344.0
625,Shin-Hanul-2,37.083889,129.391667,South Korea,KR,Under Construction,PWR,APR-1400,2013-06-19,,,1340.0,2015-05-24T04:51:53+03:00,IAEA,888.0
346,Jose Cabrera-1 (Zorita),40.362,-2.818,Spain,ES,Shutdown,PWR,WH 1LP,1964-06-24,1969-08-13,2006-04-30,153.0,2017-02-10T23:56:06+02:00,WNA/IAEA,139.0
326,Hope Creek-1,39.467,-75.535,United States,US,Operational,BWR,BWR-4 (Mark 1),1976-03-01,1986-12-20,,1067.0,2015-05-24T04:51:47+03:00,WNA/IAEA,680.0
807,Tianwan-7,34.6828,119.456,China,CN,Under Construction,PWR,VVER-1200/V491,2021-05-19,,,1171.0,2022-01-05T00:04:08+02:00,WNA/Wikipedia/IAEA,1105.0
10,Aktau (Shevchenko),43.607,51.283,Kazakhstan,KZ,Shutdown,FBR,BN-350,1964-10-01,1973-07-16,1999-04-22,52.0,2021-10-01T00:14:53+03:00,WNA/IAEA,414.0
251,Gentilly-1 (Demo),46.395,-72.357,Canada,CA,Shutdown,HWLWR,HW BLWR 250,1966-09-01,1972-05-01,1977-06-01,250.0,2015-05-24T04:50:26+03:00,WNA/IAEA,47.0
23,Asco-2,41.202,0.571,Spain,ES,Operational,PWR,WH 3LP,1975-03-07,1986-03-31,,888.0,2023-08-28T08:01:45+03:00,WNA/IAEA,156.0
223,Forsmark-3,60.405,18.168,Sweden,SE,Operational,BWR,"AA-IV, BWR-3000",1979-01-01,1985-08-18,,1050.0,2018-03-10T14:51:53+02:00,WNA/IAEA,532.0
551,Point Beach-1,44.282,-87.534,United States,US,Operational,PWR,WH 2LP (DRYAMB),1967-07-19,1970-12-21,,497.0,2017-02-10T23:58:03+02:00,WNA/IAEA,622.0
696,Tihange-3,50.533,5.271,Belgium,BE,Operational,PWR,WH 3LP,1978-11-01,1985-09-01,,1020.0,2017-02-10T23:55:44+02:00,WNA/IAEA,15.0
804,Xudabao-2,40.351389,120.545833,China,CN,Planned,PWR,AP1000,,,,,2021-05-29,Wikipedia,
458,Millstone-2,41.312,-72.166,United States,US,Operational,PWR,CE 2LP (DRYAMB),1969-11-01,1975-12-26,,870.0,2017-02-10T23:58:48+02:00,WNA/IAEA,671.0
342,Isar-2,48.607,12.296,Germany,DE,Shutdown,PWR,Konvoi,1982-09-15,1988-04-09,2023-04-15,1285.0,2023-08-28T08:01:45+03:00,WNA/IAEA,106.0
698,Tokai-2,36.466,140.612,Japan,JP,Suspended Operation,BWR,BWR-5,1973-10-03,1978-11-28,,1056.0,2023-08-28T08:01:45+03:00,WNA/IAEA,346.0
205,Emsland,52.471,7.322,Germany,DE,Shutdown,PWR,Konvoi,1982-08-10,1988-06-20,2023-04-15,1242.0,2023-08-28T08:01:45+03:00,WNA/IAEA,108.0
239,Fuqing-3,25.720278,119.383889,China,CN,Operational,PWR,CNP-1000,2010-12-31,2016-10-24,,1000.0,2017-02-10T23:59:36+02:00,WNA/IAEA,935.0
95,Bugey-2,45.796,5.268,France,FR,Operational,PWR,CP0,1972-11-01,1979-03-01,,920.0,2015-05-24T04:50:51+03:00,WNA/IAEA,165.0
736,Watts Bar-1,35.601,-84.789,United States,US,Operational,PWR,WH 4LP (ICECND),1973-07-20,1996-05-27,,1218.0,2017-02-10T23:58:57+02:00,WNA/IAEA,699.0
365,Kalpakkam-1 (Madras-1 / MAPS1),12.553,80.174,India,IN,Suspended Operation,PHWR,Horizontal Pressure Tube type,1971-01-01,1984-01-27,,202.0,2023-08-28T08:01:45+03:00,WNA/IAEA,304.0
582,Rolphton NPD,46.201,-77.705,Canada,CA,Shutdown,PHWR,CANDU,1958-01-01,1962-10-01,1987-08-01,17.0,2015-05-24T04:50:20+03:00,WNA/IAEA,29.0
286,Hamaoka-5,34.621,138.141,Japan,JP,Suspended Operation,BWR,ABWR,2000-07-12,2005-01-18,,1325.0,2022-12-30T02:07:18+02:00,WNA/IAEA,843.0
186,Douglas Point,44.326,-81.601,Canada,CA,Shutdown,PHWR,CANDU 200,1960-02-01,1968-09-26,1984-05-04,203.0,2015-05-24T04:50:24+03:00,WNA/IAEA,40.0
655,St. Laurent-A2,47.724,1.582,France,FR,Shutdown,GCR,UNGG,1966-01-01,1971-11-01,1992-05-27,515.0,2015-05-24T04:51:07+03:00,WNA/IAEA,229.0
541,Pickering-1,43.812,-79.07,Canada,CA,Operational,PHWR,CANDU 500A,1966-06-01,1971-07-29,,508.0,2015-05-24T04:50:33+03:00,WNA/IAEA,49.0
155,Columbia (WNP-2),46.471,-119.333,United States,US,Operational,BWR,BWR-5 (Mark 2),1972-08-01,1984-12-13,,1100.0,2015-05-24T04:51:48+03:00,WNA/IAEA,702.0
76,Braidwood-1,41.247,-88.23,United States,US,Operational,PWR,WH 4LP (DRYAMB),1975-08-01,1988-07-29,,1120.0,2017-02-10T23:59:18+02:00,WNA/IAEA,737.0
750,Wylfa-1,53.416,-4.48,United Kingdom,GB,Shutdown,GCR,MAGNOX,1963-09-01,1971-11-01,2015-12-30,550.0,2016-03-09T18:43:09+02:00,WNA/IAEA,240.0
501,Ohi-4,35.544,135.652,Japan,JP,Operational,PWR,M (4-loop),1988-06-13,1993-02-02,,1127.0,2015-05-24T04:51:30+03:00,WNA/IAEA,379.0
279,Haiyang-3,36.704,121.382,China,CN,Under Construction,PWR,CAP1000,2022-07-07,,,1161.0,2022-09-24T22:33:57+03:00,WNA/IAEA,993.0
69,Bohunice-4,48.494,17.687,Slovakia,SK,Operational,PWR,VVER V-213,1976-12-01,1985-12-18,,466.0,2021-02-14T03:47:53+02:00,WNA/IAEA,547.0
518,Paks-3,46.574,18.855,Hungary,HU,Operational,PWR,VVER V-213,1979-10-01,1986-12-01,,410.0,2015-05-24T04:51:21+03:00,WNA/IAEA,280.0
190,Dresden-2,41.353,-88.349,United States,US,Operational,BWR,BWR-3 (Mark 1),1966-01-10,1970-06-09,,794.0,2015-05-24T04:51:41+03:00,WNA/IAEA,608.0
273,Gundremmingen-B,48.513,10.401,Germany,DE,Shutdown,BWR,BWR-72,1976-07-20,1984-07-19,2017-12-31,1244.0,2018-03-10T14:51:13+02:00,WNA/IAEA,100.0
238,Fuqing-2,25.443,119.453,China,CN,Operational,PWR,CNP-1000,2009-06-17,2015-10-16,,1000.0,2016-03-09T18:43:55+02:00,WNA/IAEA,915.0
90,Bruce-8,44.341,-81.572,Canada,CA,Operational,PHWR,CANDU 750B,1979-07-30,1987-05-20,,795.0,2022-04-21T20:26:19+03:00,WNA/IAEA,42.0
687,THTR-300,51.68,7.972,Germany,DE,Shutdown,HTGR,Pebble bed reactor,1971-05-03,1987-06-01,1988-09-29,296.0,2015-05-24T04:54:05+03:00,WNA/IAEA,92.0
119,Cattenom-3,49.416,6.217,France,FR,Operational,PWR,P4 REP 1300,1982-06-15,1991-02-01,,1300.0,2015-05-24T04:51:04+03:00,WNA/IAEA,218.0
127,Chapelcross-1,55.014,-3.223,United Kingdom,GB,Shutdown,GCR,MAGNOX,1955-10-01,1959-03-01,2004-06-29,35.0,2015-05-24T04:51:17+03:00,WNA/IAEA,252.0
803,Xudabao-1,40.351389,120.545833,China,CN,Planned,PWR,AP1000,,,,,2021-05-29,Wikipedia,
291,Hanbit-4,35.405,126.41,South Korea,KR,Operational,PWR,OPR-1000,1990-05-26,1996-01-01,,950.0,2022-09-24T22:33:57+03:00,IAEA,397.0
240,Fuqing-4,25.720278,119.383889,China,CN,Operational,PWR,CNP-1000,2012-11-17,2017-09-17,,1000.0,2018-03-10T14:52:08+02:00,WNA/IAEA,936.0
1,Ågesta,59.206,18.0829,Sweden,SE,Shutdown,PHWR,,1957-12-01,1964-05-01,1974-06-02,9.0,2015-05-24T04:51:37+03:00,WNA/IAEA,528.0
811,Changjiang SMR-2,,,China,CN,Planned,PWR,ACP100,,,,,2021-05-29,WNA,
466,Muehleberg,46.969,7.266,Switzerland,CH,Shutdown,BWR,BWR-4,1967-03-01,1972-11-06,2019-12-20,306.0,2020-04-18T04:46:52+03:00,WNA/IAEA,56.0
706,Tricastin-1,44.33,4.733,France,FR,Operational,PWR,CP1,1974-11-01,1980-12-01,,915.0,2015-05-24T04:50:51+03:00,WNA/IAEA,170.0
810,Changjiang SMR-1,19.46007,108.88992,China,CN,Under Construction,PWR,ACP100,2021-07-13,,,100.0,2022-04-21T20:26:19+03:00,WNA/IAEA,1111.0
280,Haiyang-4,36.704,121.382,China,CN,Under Construction,PWR,CAP1000,2023-04-22,,,1161.0,2023-08-28T08:01:45+03:00,WNA/IAEA,994.0
628,Saeul-1,35.327,129.302,South Korea,KR,Operational,PWR,APR-1400,2008-10-16,2016-12-20,,1340.0,2022-12-30T01:45:43+02:00,WNA/IAEA,885.0
118,Cattenom-2,49.416,6.217,France,FR,Operational,PWR,P4 REP 1300,1980-07-28,1988-02-01,,1300.0,2015-05-24T04:51:02+03:00,WNA/IAEA,210.0
230,Fukushima Daiichi-4,37.423,141.032,Japan,JP,Shutdown,BWR,BWR-4,1973-02-12,1978-10-12,2011-05-19,760.0,2019-06-30T12:49:48+03:00,WNA/IAEA,340.0
570,Rajasthan-4,24.876,75.608,India,IN,Operational,PHWR,Horizontal Pressure Tube type,1990-10-01,2000-12-23,,202.0,2015-05-24T04:54:05+03:00,WNA/IAEA,288.0
553,Point Lepreau,45.068,-66.455,Canada,CA,Operational,PHWR,CANDU 6,1975-05-01,1983-02-01,,660.0,2015-05-24T04:50:23+03:00,WNA/IAEA,37.0
818,El Dabaa-3,31.044167,28.497778,Egypt,EG,Under Construction,PWR,VVER-1200,2023-05-03,,,1100.0,2023-08-28T08:24:00+03:00,IAEA/Wikipedia,1120.0
276,Haddam Neck,41.483,-72.5,United States,US,Shutdown,PWR,,1964-05-01,1968-01-01,1996-12-05,582.0,2015-05-24T04:51:41+03:00,WNA/IAEA,605.0
320,Hongyanhe-1,39.797,121.4765,China,CN,Operational,PWR,CPR-1000,2007-08-18,2013-06-06,,1061.0,2015-08-23T03:28:28+03:00,WNA/IAEA/GEO,904.0
671,Takahama-1,35.52,135.503,Japan,JP,Suspended Operation,PWR,M (3-loop),1970-04-25,1974-11-14,,780.0,2023-08-28T08:01:45+03:00,WNA/IAEA,388.0
146,Chinon-B3,47.232,0.167,France,FR,Operational,PWR,CP2,1980-10-01,1987-03-04,,905.0,2015-05-24T04:51:03+03:00,WNA/IAEA,213.0
581,River Bend-1,30.727,-91.372,United States,US,Operational,BWR,BWR-6 (Mark 3),1977-03-25,1986-06-16,,966.0,2015-05-24T04:51:49+03:00,WNA/IAEA,739.0
682,Tarapur-4,19.834,72.657,India,IN,Operational,PHWR,Horizontal Pressure Tube Type,2000-03-08,2005-09-12,,502.0,2015-05-24T04:54:06+03:00,WNA/IAEA,301.0
739,Winfrith SGHWR,50.68,-2.272,United Kingdom,GB,Shutdown,SGHWR,,1963-05-01,1968-01-01,1990-09-11,92.0,2015-05-24T04:51:12+03:00,WNA/IAEA,239.0
589,Rivne-3,51.326,25.9,Ukraine,UA,Operational,PWR,VVER V-320,1980-02-01,1987-05-16,,950.0,2023-08-28T08:51:40+03:00,WNA/IAEA,572.0
371,Kashiwazaki Kariwa-1,37.434,138.598,Japan,JP,Suspended Operation,BWR,BWR-5,1980-06-05,1985-09-18,,1067.0,2022-09-24T22:33:57+03:00,WNA/IAEA,359.0
270,Grohnde,52.033,9.412,Germany,DE,Shutdown,PWR,PWR,1976-06-01,1985-02-01,2021-12-31,1289.0,2022-04-21T20:26:19+03:00,WNA/IAEA,101.0
571,Rajasthan-5,24.876,75.608,India,IN,Operational,PHWR,Horizontal Pressure Tube type,2002-09-18,2010-02-04,,202.0,2015-05-24T04:54:06+03:00,WNA/IAEA,295.0
309,Higashi Dori-1 (Tokyo),41.1856,141.388,Japan,JP,Planned,ABWR,,,,,,,WNA,
312,Hinkley Point-A1,51.209,-3.131,United Kingdom,GB,Shutdown,GCR,MAGNOX,1957-11-01,1965-03-30,2000-05-23,250.0,2015-05-24T04:51:19+03:00,WNA/IAEA,271.0
519,Paks-4,46.574,18.855,Hungary,HU,Operational,PWR,VVER V-213,1979-10-01,1987-11-01,,410.0,2015-05-24T04:51:21+03:00,WNA/IAEA,281.0
47,Beloyarsk-2,56.842,61.321,Russia,RU,Shutdown,LWGR,AMB-200,1962-01-01,1969-12-01,1990-01-01,146.0,2015-05-24T04:51:35+03:00,WNA/IAEA,503.0
351,Kaiga-2,14.865,74.438,India,IN,Operational,PHWR,Horizontal Pressure Tube type,1989-12-01,2000-03-16,,202.0,2015-05-24T04:54:05+03:00,WNA/IAEA,290.0
373,Kashiwazaki Kariwa-3,37.434,138.598,Japan,JP,Suspended Operation,BWR,BWR-5,1989-03-07,1993-08-11,,1067.0,2022-09-24T22:33:57+03:00,WNA/IAEA,380.0
527,Paluel-4,49.857,0.635,France,FR,Operational,PWR,P4 REP 1300,1980-02-01,1986-06-01,,1330.0,2015-05-24T04:50:58+03:00,WNA/IAEA,194.0
263,Gravelines-5,51.014,2.138,France,FR,Operational,PWR,CP1,1979-10-01,1985-01-15,,910.0,2015-05-24T04:51:01+03:00,WNA/IAEA,208.0
197,Dungeness-A1,50.914,0.962,United Kingdom,GB,Shutdown,GCR,MAGNOX,1960-07-01,1965-10-28,2006-12-31,275.0,2015-05-24T04:51:20+03:00,WNA/IAEA,275.0
819,Lufeng-5,,,China,CN,Under Construction,PWR,HPR1000,2022-09-08,,,1116.0,2023-08-28T08:01:45+03:00,IAEA,1113.0
678,Taohuajiang-4,,,China,CN,Planned,PWR,,,,,,,WNA,
109,Callaway-1,38.763,-91.781,United States,US,Operational,PWR,WH 4LP (DRYAMB),1975-09-01,1984-12-19,,1171.0,2017-02-10T23:59:20+02:00,WNA/IAEA,752.0
60,Bilibino-3,68.059,166.492,Russia,RU,Operational,LWGR,EGP-6,1970-01-01,1976-02-01,,11.0,2015-05-24T04:51:32+03:00,WNA/IAEA,469.0
603,Saxton,40.226944,-78.241944,United States,US,Shutdown,PWR,25,1960-01-01,,1972-05-01,3.0,2022-04-21T20:26:19+03:00,IAEA,892.0
442,Longyou-1,,,China,CN,Planned,PWR,,,,,,,WNA,
102,Bushehr-4,28.8305,50.8872,Iran,IR,Planned,,,,,,,,WNA,
480,Ningde-6,27.046,120.287,China,CN,Planned,PWR,CPR-1000,,,,,,WNA/Wikipedia,
731,Vogtle-1,33.143,-81.76,United States,US,Operational,PWR,WH 4LP (DRYAMB),1976-08-01,1987-06-01,,1122.0,2017-02-10T23:59:15+02:00,WNA/IAEA,718.0
587,Rivne-1,51.326,25.9,Ukraine,UA,Operational,PWR,VVER V-213,1973-08-01,1981-09-22,,361.0,2023-08-28T08:51:40+03:00,WNA/IAEA,570.0
630,Saeul-3,35.327,129.302,South Korea,KR,Under Construction,PWR,APR-1400,2017-04-01,,,1340.0,2022-12-30T01:45:43+02:00,WNA/Wikipedia/IAEA,1074.0
181,Doel-2,51.323,4.259,Belgium,BE,Operational,PWR,WH 2LP,1971-09-01,1975-12-01,,445.0,2021-01-06T01:19:47+02:00,WNA/IAEA,11.0
306,Heysham-B1,54.029,-2.912,United Kingdom,GB,Operational,GCR,AGR,1980-08-01,1989-04-01,,615.0,2015-05-24T04:51:18+03:00,WNA/IAEA,259.0
488,Novovoronezh 2-2,51.273,39.197,Russia,RU,Operational,PWR,VVER V-392M,2009-07-12,2019-10-31,,1114.0,2020-04-18T04:46:52+03:00,WNA/IAEA,899.0
479,Ningde-5,27.046,120.287,China,CN,Planned,PWR,CPR-1000,,,,,,WNA/Wikipedia,
790,Taipingling-1,22.693056,114.983333,China,CN,Under Construction,PWR,HPR1000,2019-12-26,,,1116.0,2020-06-06T02:41:28+03:00,IAEA,1084.0
151,Civaux-1,46.457,0.654,France,FR,Operational,PWR,N4 REP 1450,1988-10-15,2002-01-29,,1450.0,2015-05-24T04:51:07+03:00,WNA/IAEA,227.0
126,Changjiang-2,19.46075,108.899917,China,CN,Operational,PWR,CNP-600,2010-11-21,2016-08-12,,601.0,2021-04-20T03:20:43+03:00,WNA/IAEA/Wikipedia,940.0
639,Sizewell-A2,52.212,1.621,United Kingdom,GB,Shutdown,GCR,MAGNOX,1961-04-01,1966-09-15,2006-12-31,290.0,2015-05-24T04:51:11+03:00,WNA/IAEA,236.0
814,Shanwei-2,,,China,CN,Planned,PWR,,,,,,2021-05-29,WNA,
187,Dounreay DFR,58.577,-3.745,United Kingdom,GB,Shutdown,FBR,,1955-03-01,1962-10-01,1977-03-01,14.0,2015-05-24T04:51:14+03:00,WNA/IAEA,242.0
545,Pickering-5,43.812,-79.07,Canada,CA,Operational,PHWR,CANDU 500B,1974-11-01,1983-05-10,,516.0,2015-05-24T04:50:22+03:00,WNA/IAEA,33.0
51,Berkeley-1,51.692,-2.494,United Kingdom,GB,Shutdown,GCR,MAGNOX,1957-01-01,1962-06-12,1989-03-31,138.0,2015-05-24T04:51:19+03:00,WNA/IAEA,264.0
532,Pengze-1,,,China,CN,Planned,PWR,AP-1000,,,,,,WNA,
809,Changjiang-4,19.46075,108.899917,China,CN,Under Construction,PWR,HPR1000,2021-12-28,,,1000.0,2022-04-21T20:26:19+03:00,Wikipedia/IAEA,942.0
623,Shin-Wolsong-2,35.722,129.479,South Korea,KR,Operational,PWR,OPR-1000,2008-09-23,2015-07-24,,950.0,2022-04-21T20:26:19+03:00,WNA/IAEA,884.0
323,Hongyanhe-4,39.797,121.4765,China,CN,Operational,PWR,CPR-1000,2009-08-15,2016-06-08,,1061.0,2019-06-02T20:18:47+03:00,WNA/IAEA/GEO,907.0
355,Kaiga-6,14.868,74.4422,India,IN,Planned,PWR,,,,,,,WNA,
752,Xianning-1,29.66,114.67,China,CN,Planned,PWR,AP-1000,,,,,,WNA/Wikipedia,
144,Chinon-B1,47.232,0.167,France,FR,Operational,PWR,CP2,1977-03-01,1984-02-01,,870.0,2015-05-24T04:50:58+03:00,WNA/IAEA,196.0
372,Kashiwazaki Kariwa-2,37.434,138.598,Japan,JP,Suspended Operation,BWR,BWR-5,1985-11-18,1990-09-28,,1067.0,2022-09-24T22:33:57+03:00,WNA/IAEA,365.0
143,Chinon-A3,47.232,0.167,France,FR,Shutdown,GCR,UNGG,1961-03-01,1966-08-04,1990-06-15,480.0,2015-05-24T04:50:58+03:00,WNA/IAEA,195.0
401,Kruemmel,53.41,10.41,Germany,DE,Shutdown,BWR,BWR-69,1974-04-05,1984-03-28,2011-08-06,1260.0,2015-05-24T04:50:44+03:00,WNA/IAEA,94.0
265,Greifswald-1,54.143,13.668,Germany,DE,Shutdown,PWR,VVER V-230,1970-03-01,1974-07-12,1990-12-18,440.0,2022-09-24T22:33:57+03:00,WNA/IAEA,123.0
322,Hongyanhe-3,39.797,121.4765,China,CN,Operational,PWR,CPR-1000,2009-03-07,2015-08-16,,1061.0,2017-09-25T03:20:36+03:00,WNA/IAEA/GEO,906.0
20,Armenian-2,40.182,44.147,Armenia,AM,Operational,PWR,VVER V-270,1975-07-01,1980-05-03,,375.0,2021-06-29T00:12:17+03:00,WNA/IAEA,2.0
174,Darlington-6,43.8633,-78.7244,Canada,CA,Planned,PHWR,,,,,,,WNA,
659,St. Lucie-2,27.348,-80.244,United States,US,Operational,PWR,CE 2LP (DRYAMB),1977-06-02,1983-08-08,,830.0,2017-02-10T23:58:56+02:00,WNA/IAEA,698.0
314,Hinkley Point-B1,51.209,-3.131,United Kingdom,GB,Shutdown,GCR,AGR,1967-09-01,1978-10-02,2022-08-01,625.0,2022-09-24T22:33:57+03:00,WNA/IAEA,244.0
392,Kori-3,35.321,129.295,South Korea,KR,Operational,PWR,WH F,1979-10-01,1985-09-30,,1001.0,2022-04-21T20:26:19+03:00,WNA/IAEA,409.0
758,Yangjiang-3,21.706,112.256,China,CN,Operational,PWR,CPR-1000,2010-11-15,2016-01-01,,1000.0,2016-03-09T18:43:57+02:00,WNA/IAEA,931.0
13,Angra-1,-23.008,-44.457,Brazil,BR,Operational,PWR,WH 2LP,1971-05-01,1985-01-01,,609.0,2021-02-14T03:47:53+02:00,WNA/IAEA,24.0
409,Kumharia-2,,,India,IN,Planned,PHWR,,,,,,,WNA,
410,Kumharia-3,,,India,IN,Planned,PHWR,,,,,,,WNA,
307,Heysham-B2,54.029,-2.912,United Kingdom,GB,Operational,GCR,AGR,1980-08-01,1989-04-01,,615.0,2015-05-24T04:51:18+03:00,WNA/IAEA,260.0
356,Kakrapar-1,21.236,73.351,India,IN,Operational,PHWR,Horizontal Pressure Tube type,1984-12-01,1993-05-06,,202.0,2015-05-24T04:54:06+03:00,WNA/IAEA,308.0
26,Balakovo-1,52.092,47.952,Russia,RU,Operational,PWR,VVER V-320,1980-12-01,1986-05-23,,950.0,2015-05-24T04:51:36+03:00,WNA/IAEA,524.0
601,Sanming-2,,,China,CN,Planned,FBR,,,,,,,WNA,
171,Darlington-3,43.867,-78.724,Canada,CA,Operational,PHWR,CANDU 850,1984-09-01,1993-02-14,,881.0,2015-05-24T04:50:26+03:00,WNA/IAEA,45.0
39,Beaver Valley-2,40.624,-80.432,United States,US,Operational,PWR,WH 3LP (DRYSUB),1974-05-03,1987-11-17,,836.0,2017-02-10T23:58:59+02:00,WNA/IAEA,712.0
177,Daya Bay-2 (Guangdong-2),22.599,114.544,China,CN,Operational,PWR,M310,1988-04-07,1994-05-06,,930.0,2015-05-24T04:50:39+03:00,WNA/IAEA,64.0
247,Genkai-1,33.518,129.837,Japan,JP,Shutdown,PWR,M (2-loop),1971-09-15,1975-10-15,2015-04-27,529.0,2015-05-24T04:51:27+03:00,WNA/IAEA,336.0
300,Hartlepool-A1,54.634,-1.18,United Kingdom,GB,Operational,GCR,AGR,1968-10-01,1989-04-01,,590.0,2021-04-20T02:47:37+03:00,WNA/IAEA,250.0
674,Takahama-4,35.52,135.503,Japan,JP,Operational,PWR,M (3-loop),1981-03-19,1985-06-05,,830.0,2015-05-24T04:51:28+03:00,WNA/IAEA,356.0
418,LaCrosse,43.559,-91.23,United States,US,Shutdown,BWR,,1963-03-01,1969-11-07,1987-04-30,50.0,2015-05-24T04:51:48+03:00,WNA/IAEA,710.0
578,Ringhals-2,57.259,12.111,Sweden,SE,Shutdown,PWR,WH 3LP,1970-10-01,1975-05-01,2019-12-31,820.0,2020-04-18T04:46:52+03:00,WNA/IAEA,537.0
274,Gundremmingen-C,48.513,10.401,Germany,DE,Shutdown,BWR,BWR-72,1976-07-20,1985-01-18,2021-12-31,1249.0,2022-04-21T20:26:19+03:00,WNA/IAEA,102.0
615,Shearon Harris-1,35.635,-78.955,United States,US,Operational,PWR,WH 3LP (DRYAMB),1978-01-28,1987-05-02,,900.0,2017-02-10T23:58:59+02:00,WNA/IAEA,704.0
156,Comanche Peak-1,32.301,-97.787,United States,US,Operational,PWR,WH 4LP (DRYAMB),1974-12-19,1990-08-13,,1150.0,2017-02-10T23:59:17+02:00,WNA/IAEA,729.0
128,Chapelcross-2,55.014,-3.223,United Kingdom,GB,Shutdown,GCR,MAGNOX,1955-10-01,1959-08-01,2004-06-29,35.0,2015-05-24T04:51:18+03:00,WNA/IAEA,253.0
451,Maine Yankee,43.951,-69.695,United States,US,Shutdown,PWR,,1968-10-01,1972-12-28,1997-08-01,825.0,2015-05-24T04:51:44+03:00,WNA/IAEA,649.0
652,St. Alban-1,45.404,4.754,France,FR,Operational,PWR,P4 REP 1300,1979-01-29,1986-05-01,,1335.0,2015-05-24T04:51:00+03:00,WNA/IAEA,204.0
343,Jaitapur-1,16.595278,73.341111,India,IN,Planned,PWR,,,,,,,WNA/Wikipedia,
432,Leningrad-4,59.837,29.039,Russia,RU,Operational,LWGR,RBMK-1000,1975-02-01,1981-08-29,,925.0,2015-05-24T04:51:34+03:00,WNA/IAEA,494.0
289,Hanbit-2,35.405,126.41,South Korea,KR,Operational,PWR,WH F,1981-12-01,1987-06-10,,903.0,2022-04-21T20:26:19+03:00,IAEA,412.0
115,Catawba-1,35.053,-81.071,United States,US,Operational,PWR,WH 4LP (ICECND),1974-05-01,1985-06-29,,1145.0,2017-02-10T23:59:13+02:00,WNA/IAEA,713.0
502,Ohma,41.507,140.909,Japan,JP,Under Construction,BWR,ABWR,2010-05-07,,,1328.0,2017-02-10T23:59:23+02:00,WNA/IAEA,867.0
175,Davis Besse-1,41.597,-83.092,United States,US,Operational,PWR,B&W RLP (DRYAMB),1970-09-01,1978-07-31,,906.0,2017-02-10T23:58:51+02:00,WNA/IAEA,676.0
361,Kalinin-2,57.903,35.057,Russia,RU,Operational,PWR,VVER V-338,1982-02-01,1987-03-03,,950.0,2015-05-24T04:51:34+03:00,WNA/IAEA,490.0
485,North Anna-1,38.061,-77.792,United States,US,Operational,PWR,WH 3LP (DRYSUB),1971-02-19,1978-06-06,,907.0,2017-02-10T23:58:49+02:00,WNA/IAEA,672.0
58,Bilibino-1,68.059,166.492,Russia,RU,Shutdown,LWGR,EGP-6,1970-01-01,1974-04-01,2019-01-14,11.0,2019-06-02T20:18:07+03:00,WNA/IAEA,467.0
556,Prairie Island-2,44.622,-92.631,United States,US,Operational,PWR,WH 2LP (DRYAMB),1969-06-25,1974-12-21,,530.0,2017-02-10T23:58:28+02:00,WNA/IAEA,648.0
224,Fort Calhoun-1,41.52,-96.076,United States,US,Shutdown,PWR,CE 2LP,1968-06-07,1973-09-26,2016-10-24,478.0,2017-02-10T23:58:13+02:00,WNA/IAEA,634.0
282,Hamaoka-1,34.621,138.141,Japan,JP,Shutdown,BWR,BWR-4,1971-06-10,1976-03-17,2009-01-30,516.0,2015-05-24T04:51:27+03:00,WNA/IAEA,335.0
18,Arkansas Nuclear One-2 (ANO-2),35.31,-93.229,United States,US,Operational,PWR,CE 2LP (DRYAMB),1968-12-06,1980-03-26,,912.0,2017-02-10T23:58:53+02:00,WNA/IAEA,689.0
129,Chapelcross-3,55.014,-3.223,United Kingdom,GB,Shutdown,GCR,MAGNOX,1955-10-01,1959-12-01,2004-06-29,35.0,2015-05-24T04:51:18+03:00,WNA/IAEA,254.0
324,Hongyanhe-5,39.797,121.4831,China,CN,Operational,PWR,ACPR-1000,2015-03-29,2021-07-31,,1061.0,2022-01-05T00:04:08+02:00,WNA/IAEA/GEO,997.0
257,Grafenrheinfeld,49.984,10.186,Germany,DE,Shutdown,PWR,PWR,1975-01-01,1982-06-17,2015-06-27,1225.0,2015-08-23T03:28:22+03:00,WNA/IAEA,97.0
660,Stade,53.62,9.53,Germany,DE,Shutdown,PWR,,1967-12-01,1972-05-19,2003-11-14,630.0,2015-05-24T04:50:42+03:00,WNA/IAEA,83.0
472,Niederaichbach,48.604,12.304,Germany,DE,Decommissioning Completed,HWGCR,pressure tube reactor,1966-06-01,,1974-07-31,100.0,2022-12-30T02:21:21+02:00,WNA/IAEA,84.0
759,Yangjiang-4,21.8575,111.9825,China,CN,Operational,PWR,CPR-1000,2012-11-17,2017-03-15,,1000.0,2017-09-25T03:20:38+03:00,WNA/IAEA,932.0
470,Neckarwestheim-1,49.039,9.176,Germany,DE,Shutdown,PWR,PWR,1972-02-01,1976-12-01,2011-08-06,805.0,2015-05-24T04:50:42+03:00,WNA/IAEA,88.0
788,Rooppur-2,24.066667,89.047222,Bangladesh,BD,Under Construction,PWR,VVER V-523,2018-07-14,,,1080.0,2018-10-13T22:30:35+03:00,IAEA,1079.0
192,Duane Arnold-1,42.101,-91.776,United States,US,Shutdown,BWR,BWR-4 (Mark 1),1970-06-22,1975-02-01,2020-10-12,601.0,2021-01-06T01:19:47+02:00,WNA/IAEA,667.0
117,Cattenom-1,49.416,6.217,France,FR,Operational,PWR,P4 REP 1300,1979-10-29,1987-04-01,,1300.0,2015-05-24T04:51:01+03:00,WNA/IAEA,207.0
520,Palisades,42.323,-86.316,United States,US,Shutdown,PWR,CE 2LP (DRYAMB),1967-03-12,,2022-05-20,805.0,2022-09-24T22:33:57+03:00,WNA/IAEA,616.0
716,Tsuruga-4,,,Japan,JP,Planned,PWR,,,,,,,WNA,
773,Zaporozhye-3,47.508,34.627,Ukraine,UA,Operational,PWR,VVER V-320,1982-04-01,1987-03-05,,950.0,2015-05-24T04:51:40+03:00,WNA/IAEA,594.0
96,Bugey-3,45.798,5.268,France,FR,Operational,PWR,CP0,1973-09-01,1979-03-01,,920.0,2015-05-24T04:50:51+03:00,WNA/IAEA,166.0
182,Doel-3,51.323,4.259,Belgium,BE,Shutdown,PWR,WH 3LP,1975-01-01,1982-10-01,2022-09-23,890.0,2022-12-30T00:57:40+02:00,WNA/IAEA,12.0
303,Hatch-2,31.935,-82.346,United States,US,Operational,BWR,BWR-4 (Mark 1),1972-02-01,1979-09-05,,784.0,2015-05-24T04:51:47+03:00,WNA/IAEA,687.0
620,Shimane-2,35.537,132.999,Japan,JP,Suspended Operation,BWR,BWR-5,1985-02-02,1989-02-10,,789.0,2023-08-28T08:01:45+03:00,WNA/IAEA,368.0
585,Rostov-3 (Volgodonsk-3),47.599,42.373,Russia,RU,Operational,PWR,VVER V-320,2009-09-15,2015-09-17,,950.0,2017-02-10T23:57:13+02:00,WNA/IAEA,506.0
700,Tomari-2,43.038,140.515,Japan,JP,Suspended Operation,PWR,M (2-loop),1985-06-13,1991-04-12,,550.0,2022-09-24T22:33:57+03:00,WNA/IAEA,371.0
618,Shika-2,37.061,136.728,Japan,JP,Suspended Operation,BWR,ABWR,2001-08-20,2006-03-15,,1304.0,2022-12-30T02:24:37+02:00,WNA/IAEA,842.0
799,Sanaocun-1,27.201487,120.517974,China,CN,Under Construction,PWR,HRP1000,2020-12-31,,,1117.0,2021-02-14T03:47:53+02:00,IAEA/WNA,1094.0
715,Tsuruga-3,,,Japan,JP,Planned,PWR,,,,,,,WNA,
546,Pickering-6,43.812,-79.07,Canada,CA,Operational,PHWR,CANDU 500B,1975-10-01,1984-02-01,,516.0,2015-05-24T04:50:22+03:00,WNA/IAEA,34.0
6,Akkuyu-1,36.144444,33.541111,Türkiye,TR,Under Construction,PWR,VVER V-509,2018-04-03,,,1114.0,2018-07-01T01:21:08+03:00,WNA/Wikipedia/IAEA,553.0
805,Xudabao-3,40.351389,120.545833,China,CN,Under Construction,PWR,VVER-1200/V491,2021-07-28,,,1200.0,2022-01-05T00:04:08+02:00,WNA/Wikipedia/IAEA,1104.0
46,Beloyarsk-1,56.842,61.321,Russia,RU,Shutdown,LWGR,AMB-100,1958-06-01,1964-04-26,1983-01-01,102.0,2015-05-24T04:51:34+03:00,WNA/IAEA,488.0
738,Windscale AGR,54.426,-3.505,United Kingdom,GB,Shutdown,GCR,AGR,1958-11-01,1963-03-01,1981-04-03,32.0,2015-05-24T04:51:19+03:00,WNA/IAEA,268.0
159,Cruas-1,44.634,4.757,France,FR,Operational,PWR,CP2,1978-08-01,1984-04-02,,880.0,2015-05-24T04:50:59+03:00,WNA/IAEA,198.0
624,Shin-Hanul-1,37.083889,129.391667,South Korea,KR,Operational,PWR,APR-1400,2012-07-10,2022-12-07,,1340.0,2022-12-30T00:57:40+02:00,IAEA,887.0
173,Darlington-5,43.8644,-78.7244,Canada,CA,Planned,PHWR,,,,,,,WNA,
17,Arkansas Nuclear One-1 (ANO-1),35.31,-93.23,United States,US,Operational,PWR,B&W LLP (DRYAMB),1968-10-01,1974-12-19,,850.0,2017-02-10T23:58:30+02:00,WNA/IAEA,652.0
513,Oskarshamn-2,57.415,16.666,Sweden,SE,Shutdown,BWR,AA-II,1969-09-01,1975-01-01,2016-12-22,580.0,2018-03-10T14:51:56+02:00,WNA/IAEA,535.0
49,Beloyarsk-4,56.842,61.321,Russia,RU,Operational,FBR,BN-800,2006-07-18,2016-10-31,,820.0,2017-09-25T03:19:53+03:00,WNA/IAEA,451.0
794,Xiapu-2,26.803611,120.155,China,CN,Under Construction,FBR,CFR-600,2020-12-27,,,600.0,2021-02-14T00:09:00+02:00,WNA/Wikipedia,
517,Paks-2,46.574,18.855,Hungary,HU,Operational,PWR,VVER V-213,1974-08-01,1984-11-14,,410.0,2015-05-24T04:51:21+03:00,WNA/IAEA,279.0
754,Xiaomoshan (Jiulongshan) 1,,,China,CN,Planned,PWR,,,,,,,WNA,
482,Nizhny Novgorod-2,55.787102,42.37215,Russia,RU,Planned,PWR,,,,,,2021-06-07,WNA,
285,Hamaoka-4,34.621,138.141,Japan,JP,Suspended Operation,BWR,BWR-5,1989-10-13,1993-09-03,,1092.0,2022-12-30T02:07:18+02:00,WNA/IAEA,376.0
540,Philippsburg-2,49.253,8.432,Germany,DE,Shutdown,PWR,PWR,1977-07-07,1985-04-18,2019-12-31,1268.0,2020-04-18T04:46:52+03:00,WNA/IAEA,98.0
227,Fukushima Daiichi-1,37.423,141.032,Japan,JP,Shutdown,BWR,BWR-3,1967-07-25,1971-03-26,2011-05-19,439.0,2019-06-30T12:49:39+03:00,WNA/IAEA,377.0
27,Balakovo-2,52.092,47.952,Russia,RU,Operational,PWR,VVER V-320,1981-08-01,1988-01-18,,950.0,2015-05-24T04:51:36+03:00,WNA/IAEA,525.0
635,Sinop-2,42.0,35.0,Türkiye,TR,Planned,PWR,ATMEA-1,,,,,,Wikipedia,
439,Lingao-3,22.609,114.552,China,CN,Operational,PWR,CPR-1000,2005-12-15,2010-09-15,,1007.0,2015-05-24T04:51:51+03:00,WNA/IAEA,878.0
366,Kalpakkam-2 (Madras-2 / MAPS2),12.553,80.174,India,IN,Operational,PHWR,Horizontal Pressure Tube type,1972-10-01,1986-03-21,,202.0,2015-05-24T04:54:06+03:00,WNA/IAEA,305.0
231,Fukushima Daiichi-5,37.423,141.032,Japan,JP,Shutdown,BWR,BWR-4,1972-05-22,1978-04-18,2013-12-17,760.0,2019-06-30T12:49:49+03:00,WNA/IAEA,341.0
38,Beaver Valley-1,40.624,-80.432,United States,US,Operational,PWR,WH 3LP (DRYSUB),1970-06-26,1976-10-01,,835.0,2017-02-10T23:58:44+02:00,WNA/IAEA,669.0
789,Kursk 2-2,51.674,35.607,Russia,RU,Under Construction,PWR,VVER V-510,2019-05-01,,,1200.0,2023-08-28T08:01:45+03:00,IAEA,1008.0
376,Kashiwazaki Kariwa-6,37.434,138.598,Japan,JP,Suspended Operation,BWR,ABWR,1992-11-03,1996-11-07,,1315.0,2023-08-28T08:01:45+03:00,WNA/IAEA,383.0
471,Neckarwestheim-2,49.039,9.176,Germany,DE,Shutdown,PWR,Konvoi,1982-11-09,1989-04-15,2023-04-15,1225.0,2023-08-28T08:01:45+03:00,WNA/IAEA,119.0
791,Zhangzhou-2,23.829167,117.491667,China,CN,Under Construction,PWR,HPR-1000,2020-09-04,,,1126.0,2021-01-09T20:00:00+02:00,IAEA/Wikipedia,1090.0
688,Tianwan-1,34.69,119.456,China,CN,Operational,PWR,VVER V-428,1999-10-20,2007-05-17,,990.0,2015-05-24T04:51:50+03:00,WNA/IAEA,838.0
596,Sanmen-1,29.101,121.642,China,CN,Operational,PWR,AP-1000,2009-04-19,2018-09-21,,1157.0,2018-10-13T22:30:42+03:00,WNA/IAEA,879.0
196,Dukovany-4,49.089,16.149,Czechia,CZ,Operational,PWR,VVER V-213,1979-03-01,1987-07-19,,420.0,2015-05-24T04:50:42+03:00,WNA/IAEA,81.0
690,Tianwan-3,34.6868,119.456,China,CN,Operational,PWR,VVER V-428M,2012-12-27,2018-02-14,,1060.0,2018-07-01T01:21:55+03:00,WNA/IAEA,973.0
699,Tomari-1,43.038,140.515,Japan,JP,Suspended Operation,PWR,M (2-loop),1985-04-18,1989-06-22,,550.0,2022-09-24T22:33:57+03:00,WNA/IAEA,370.0
505,Olkiluoto-1,61.235,21.444,Finland,FI,Operational,BWR,"AA-III, BWR-2500",1974-02-01,1979-10-10,,660.0,2018-03-10T14:51:29+02:00,WNA/IAEA,159.0
793,Xiapu-1,26.803611,120.155,China,CN,Under Construction,FBR,CFR600,2017-12-29,,,642.0,2021-04-30T21:49:18+03:00,WNA/Wikipedia/IAEA,1101.0
675,Taohuajiang-1,,,China,CN,Planned,PWR,AP-1000,,,,,,WNA,
792,Taipingling-2,22.693056,114.983333,China,CN,Under Construction,PWR,HPR1000,2020-10-15,,,1116.0,2021-01-09T17:57:48+02:00,IAEA,1091.0
164,Dampierre-1,47.732,2.513,France,FR,Operational,PWR,CP1,1975-02-01,1980-09-10,,890.0,2015-05-24T04:50:53+03:00,WNA/IAEA,176.0
577,Ringhals-1,57.259,12.111,Sweden,SE,Shutdown,BWR,AA-I,1969-02-01,1976-01-01,2020-12-31,881.0,2021-02-14T03:47:53+02:00,WNA/IAEA,536.0
154,Cofrentes,39.216,-1.051,Spain,ES,Operational,BWR,BWR-6 (Mark 3),1975-09-09,1985-03-11,,939.0,2017-02-10T23:56:09+02:00,WNA/IAEA,140.0
561,Qinshan-2-4 (Qinshan 5),30.44,120.95,China,CN,Operational,PWR,CNP-600,2007-01-28,2011-12-30,,619.0,2015-05-24T04:51:51+03:00,WNA/IAEA,877.0
669,Taishan-1,21.917778,112.981944,China,CN,Operational,PWR,EPR-1750,2009-11-18,2018-12-13,,1660.0,2021-01-09T20:00:00+02:00,WNA/IAEA/Wikipedia,918.0
812,Bohai Shipyard FNPP,,,China,CN,Planned,PWR,ACPR50S,,,,,2021-05-29,WNA,
113,CAREM25,-33.966667,-59.211111,Argentina,AR,Under Construction,PWR,CAREM Prototype (Integrated-PWR),2015-08-25,,,25.0,2022-04-21T20:26:19+03:00,IAEA,1055.0
228,Fukushima Daiichi-2,37.423,141.032,Japan,JP,Shutdown,BWR,BWR-4,1969-06-09,1974-07-18,2011-05-19,760.0,2019-06-30T12:49:43+03:00,WNA/IAEA,389.0
608,Sequoyah-1,35.228,-85.094,United States,US,Operational,PWR,WH 4LP (ICECND),1970-05-27,1981-07-01,,1148.0,2017-02-10T23:58:40+02:00,WNA/IAEA,663.0
105,Calder Hall-1,54.42,-3.491,United Kingdom,GB,Shutdown,GCR,MAGNOX,1953-08-01,1956-10-01,2003-03-31,35.0,2015-05-24T04:51:09+03:00,WNA/IAEA,231.0
423,Latina,41.427,12.808,Italy,IT,Shutdown,GCR,MAGNOX,1958-11-01,1964-01-01,1987-12-01,200.0,2015-05-24T04:51:26+03:00,WNA/IAEA,318.0
421,LaSalle-1,41.246,-88.672,United States,US,Operational,BWR,BWR-5 (Mark 2),1973-09-10,1984-01-01,,1078.0,2015-05-24T04:51:48+03:00,WNA/IAEA,692.0
121,CEFR (China Experimental Fast Reactor),39.739,116.03,China,CN,Operational,FBR,BN-20,2000-05-10,,,20.0,2021-06-12,WNA/IAEA,1047.0
54,Beznau-2,47.552,8.229,Switzerland,CH,Operational,PWR,WH 2LP,1968-01-01,1972-03-04,,350.0,2023-08-28T08:01:45+03:00,WNA/IAEA,57.0
153,Clinton-1,40.172,-88.834,United States,US,Operational,BWR,BWR-6 (Mark 3),1975-10-01,1987-11-24,,950.0,2015-05-24T04:51:49+03:00,WNA/IAEA,742.0
405,Kudankulam-4,8.16666,77.708,India,IN,Under Construction,PWR,VVER V-412,2017-10-23,,,917.0,2018-07-01T01:21:38+03:00,WNA/IAEA,1060.0
772,Zaporozhye-2,47.508,34.627,Ukraine,UA,Operational,PWR,VVER V-320,1981-01-01,1986-02-15,,950.0,2015-05-24T04:51:40+03:00,WNA/IAEA,586.0
209,Fangchenggang-1,21.6,108.3,China,CN,Operational,PWR,CPR-1000,2010-07-30,2016-01-01,,1000.0,2019-06-29T22:55:52+03:00,WNA/IAEA,943.0
683,Temelin-1,49.181,14.377,Czechia,CZ,Operational,PWR,VVER V-320,1987-02-01,2002-06-10,,1027.0,2021-02-14T03:47:53+02:00,WNA/IAEA,74.0
622,Shin-Wolsong-1,35.722,129.479,South Korea,KR,Operational,PWR,OPR-1000,2007-11-20,2012-07-31,,950.0,2022-04-21T20:26:19+03:00,WNA/IAEA,883.0
9,Akkuyu-4,36.144444,33.541111,Türkiye,TR,Under Construction,PWR,VVER V-509,2022-07-21,,,1114.0,2022-09-24T22:33:57+03:00,Wikipedia/IAEA,1082.0
662,Summer-2,34.295833,-81.320278,United States,US,Suspended Construction,PWR,AP-1000,2013-03-09,,,1117.0,2018-03-10T14:56:12+02:00,IAEA,1038.0
37,Barseback-2,55.745,12.926,Sweden,SE,Shutdown,BWR,AA-II,1973-01-01,1977-07-01,2005-05-31,570.0,2018-03-10T14:52:02+02:00,WNA/IAEA,540.0
454,Mihama-1,35.701,135.962,Japan,JP,Shutdown,PWR,WH 2LP,1967-02-01,1970-11-28,2015-04-27,320.0,2017-02-10T23:56:29+02:00,WNA/IAEA,366.0
255,Golfech-1,44.105,0.845,France,FR,Operational,PWR,P4 REP 1300,1982-11-17,1991-02-01,,1310.0,2015-05-24T04:51:04+03:00,WNA/IAEA,219.0
305,Heysham-A2,54.029,-2.912,United Kingdom,GB,Operational,GCR,AGR,1970-12-01,1989-04-01,,611.0,2015-05-24T04:51:18+03:00,WNA/IAEA,257.0
610,Shanwei-1,,,China,CN,Planned,PWR,,,,,,,WNA,
583,Rostov-1 (Volgodonsk-1),47.599,42.373,Russia,RU,Operational,PWR,VVER V-320,1981-09-01,2001-12-25,,950.0,2015-05-24T04:51:35+03:00,WNA/IAEA,502.0
591,Salem-1,39.463,-75.534,United States,US,Operational,PWR,WH 4LP (DRYAMB),1968-09-25,1977-06-30,,1090.0,2017-02-10T23:58:08+02:00,WNA/IAEA,627.0
264,Gravelines-6,51.014,2.138,France,FR,Operational,PWR,CP1,1979-10-01,1985-10-25,,910.0,2015-05-24T04:51:02+03:00,WNA/IAEA,209.0
299,Hanul-6,37.09,129.384444,South Korea,KR,Operational,PWR,OPR-1000,2000-09-29,2005-04-22,,950.0,2022-04-21T20:26:19+03:00,IAEA,406.0
416,Kursk-3,51.674,35.607,Russia,RU,Operational,LWGR,RBMK-1000,1978-04-01,1984-03-30,,925.0,2015-05-24T04:51:35+03:00,WNA/IAEA,497.0
152,Civaux-2,46.457,0.654,France,FR,Operational,PWR,N4 REP 1450,1991-04-01,2002-04-23,,1450.0,2015-05-24T04:51:07+03:00,WNA/IAEA,228.0
679,Tarapur-1,19.834,72.657,India,IN,Suspended Operation,BWR,BWR-1 (Mark 2),1964-10-01,1969-10-28,,200.0,2023-08-28T08:01:45+03:00,WNA/IAEA,285.0
725,Unterweser,53.429,8.477,Germany,DE,Shutdown,PWR,PWR,1972-07-01,1979-09-06,2011-08-06,1230.0,2015-05-24T04:50:42+03:00,WNA/IAEA,90.0
552,Point Beach-2,44.282,-87.534,United States,US,Operational,PWR,WH 2LP (DRYAMB),1968-07-25,1972-10-01,,497.0,2017-02-10T23:58:22+02:00,WNA/IAEA,644.0
490,Novovoronezh-2,51.275,39.206,Russia,RU,Shutdown,PWR,VVER V-365,1964-06-01,1970-04-14,1990-08-29,336.0,2018-07-01T01:21:53+03:00,WNA/IAEA,513.0
149,Chooz-B1,50.086,4.792,France,FR,Operational,PWR,N4 REP 1450,1984-01-01,2000-05-15,,1455.0,2015-05-24T04:51:04+03:00,WNA/IAEA,220.0
148,Chooz-A,50.086,4.792,France,FR,Shutdown,PWR,CHOOZ-A,1962-01-01,1967-04-15,1991-10-30,280.0,2015-05-24T04:51:01+03:00,WNA/IAEA,206.0
592,Salem-2,39.463,-75.534,United States,US,Operational,PWR,WH 4LP (DRYAMB),1968-09-25,1981-10-13,,1115.0,2017-02-10T23:58:29+02:00,WNA/IAEA,650.0
755,Xiaomoshan (Jiulongshan) 2,,,China,CN,Planned,PWR,,,,,,,WNA,
605,Sendai-1,31.834,130.193,Japan,JP,Operational,PWR,M (3-loop),1979-12-15,1984-07-04,,846.0,2015-05-24T04:51:28+03:00,WNA/IAEA,353.0
350,Kaiga-1,14.865,74.438,India,IN,Operational,PHWR,Horizontal Pressure Tube type,1989-09-01,2000-11-16,,202.0,2015-05-24T04:54:05+03:00,WNA/IAEA,289.0
465,Monticello,45.334,-93.85,United States,US,Operational,BWR,BWR-3 (Mark 1),1967-06-19,1971-06-30,,545.0,2017-02-10T23:58:02+02:00,WNA/IAEA,620.0
327,Humboldt Bay,40.741,-124.21,United States,US,Shutdown,BWR,Natural cir.,1960-11-01,1963-08-01,1976-07-02,65.0,2015-05-24T04:51:41+03:00,WNA/IAEA,599.0
188,Dounreay PFR,58.577,-3.745,United Kingdom,GB,Shutdown,FBR,,1966-01-01,1976-07-01,1994-03-31,234.0,2015-05-24T04:51:14+03:00,WNA/IAEA,243.0
125,Changjiang-1,19.46075,108.899917,China,CN,Operational,PWR,CNP-600,2010-04-25,2015-12-25,,601.0,2021-04-20T03:20:43+03:00,WNA/IAEA/Wikipedia,939.0
777,Zhangzhou-1,23.829167,117.491667,China,CN,Under Construction,PWR,HPR1000,2019-10-16,,,1126.0,2021-01-09T20:00:00+02:00,WNA/IAEA/Wikipedia,1083.0
145,Chinon-B2,47.232,0.167,France,FR,Operational,PWR,CP2,1977-03-01,1984-08-01,,870.0,2015-05-24T04:50:59+03:00,WNA/IAEA,197.0
783,KANUPP-2,24.845,66.79,Pakistan,PK,Operational,PWR,ACP-1000,2015-08-20,2021-05-21,,1017.0,2022-04-21T20:26:19+03:00,IAEA,1067.0
199,Dungeness-B1,50.914,0.962,United Kingdom,GB,Shutdown,GCR,AGR,1965-10-01,1985-04-01,2021-06-07,607.0,2022-01-05T00:04:08+02:00,WNA/IAEA,248.0
281,Hallam,40.559,-96.785,United States,US,Shutdown,OCR,LMGMR (SGR-Sodium cooled graphite moderated reactor),1959-01-01,1963-11-01,1964-09-01,75.0,2015-08-23T03:28:28+03:00,WNA/IAEA,891.0
295,Hanul-2,37.09,129.384444,South Korea,KR,Operational,PWR,France CPI,1983-07-05,1989-09-30,,903.0,2023-08-28T08:01:45+03:00,IAEA,395.0
402,Kudankulam-1,8.167,77.713,India,IN,Operational,PWR,VVER V-412,2002-03-31,2014-12-31,,917.0,2015-05-24T04:51:50+03:00,WNA/IAEA,852.0
124,Cernavoda-3,44.322,28.061,Romania,RO,Suspended Construction,PHWR,,1984-02-09,,,655.0,2021-02-14T00:59:00+02:00,WNA/IAEA/Wikipedia,
185,Donald Cook-2,41.975,-86.564,United States,US,Operational,PWR,WH 4LP (ICECDN),1969-03-25,1978-07-01,,1100.0,2017-02-10T23:58:33+02:00,WNA/IAEA,654.0
204,Embalse,-32.232,-64.442,Argentina,AR,Operational,PHWR,CANDU 6,1974-04-01,1984-01-20,,608.0,2020-04-18T04:46:52+03:00,WNA/IAEA,4.0
440,Lingao-4,22.609,114.552,China,CN,Operational,PWR,CPR-1000,2006-06-15,2011-08-07,,1007.0,2015-05-24T04:51:51+03:00,WNA/IAEA,875.0
248,Genkai-2,33.518,129.837,Japan,JP,Shutdown,PWR,M (2-loop),1977-02-01,1981-03-30,2019-04-09,529.0,2019-11-22,WNA/IAEA,352.0
417,Kursk-4,51.674,35.607,Russia,RU,Operational,LWGR,RBMK-1000,1981-05-01,1986-02-05,,925.0,2015-05-24T04:51:35+03:00,WNA/IAEA,498.0
718,Turkey Point-4,25.435,-80.33,United States,US,Operational,PWR,WH 3LP (DRYAMB),1967-04-27,1973-09-07,,693.0,2017-02-10T23:57:58+02:00,WNA/IAEA,614.0
131,CHASNUPP-1,32.392,71.463,Pakistan,PK,Operational,PWR,CNP-300,1993-08-01,2000-09-15,,300.0,2021-06-07,WNA/IAEA,428.0
404,Kudankulam-3,8.16705,77.708,India,IN,Under Construction,PWR,VVER V-412,2017-06-29,,,917.0,2017-09-25T03:20:58+03:00,WNA/IAEA,1059.0
637,Sinop-4,42.0,35.0,Türkiye,TR,Planned,PWR,ATMEA-1,,,,,,Wikipedia,
627,Shin-Kori-2,35.327,129.302,South Korea,KR,Operational,PWR,OPR-1000,2007-06-05,2012-07-20,,995.0,2022-04-21T20:26:19+03:00,WNA/IAEA,865.0
740,Wolf Creek,38.239,-95.691,United States,US,Operational,PWR,WH 4LP (DRYAMB),1977-05-31,1985-09-03,,1170.0,2017-02-10T23:59:19+02:00,WNA/IAEA,751.0
221,Forsmark-1,60.405,18.168,Sweden,SE,Operational,BWR,"AA-III, BWR-2500",1973-06-01,1980-12-10,,900.0,2018-03-10T14:52:03+02:00,WNA/IAEA,541.0
742,Wolsong-2,35.71,129.476,South Korea,KR,Operational,PHWR,CANDU 6,1992-09-25,1997-07-01,,652.0,2022-04-21T20:26:19+03:00,WNA/IAEA,408.0
613,Shaoguan-3,,,China,CN,Planned,PWR,,,,,,,WNA,
745,Wolsong-5,35.7101,129.481,South Korea,KR,Planned,PHWR,,,,,,,WNA,
764,Yankee Rowe,42.728,-72.929,United States,US,Shutdown,PWR,PWR,1957-11-01,1961-07-01,1991-10-01,175.0,2015-05-24T04:51:43+03:00,WNA/IAEA,638.0
388,Kola-3,67.467,32.491,Russia,RU,Operational,PWR,VVER V-213,1977-04-01,1982-12-03,,411.0,2015-05-24T04:51:34+03:00,WNA/IAEA,491.0
795,Cernavoda-4,44.322,28.061,Romania,RO,Suspended Construction,PHWR,,1985-08-15,,,655.0,2021-02-14T01:00:00+02:00,IAEA/Wikipedia,
511,Onagawa-3,38.4,141.504,Japan,JP,Suspended Operation,BWR,BWR-5,1998-01-23,2002-01-30,,796.0,2022-12-30T02:21:21+02:00,WNA/IAEA,385.0
269,Greifswald-5,54.143,13.668,Germany,DE,Shutdown,PWR,VVER V-213,1976-12-01,1989-11-01,1989-11-24,408.0,2015-05-24T04:50:47+03:00,WNA/IAEA,127.0
667,Susquehanna-1,41.093,-76.143,United States,US,Operational,BWR,BWR-4 (Mark 2),1973-11-02,1983-06-08,,1065.0,2015-05-24T04:51:48+03:00,WNA/IAEA,696.0
443,Longyou-2,,,China,CN,Planned,PWR,,,,,,,WNA,
498,Ohi-1,35.544,135.652,Japan,JP,Shutdown,PWR,WH 4LP,1972-10-26,1979-03-27,2018-03-01,1120.0,2019-06-02T20:19:15+03:00,WNA/IAEA,339.0
114,Carolinas CVTR,34.263,-81.33,United States,US,Shutdown,PHWR,Prototype,1960-01-01,1963-12-18,1967-01-10,17.0,2017-02-10T23:57:39+02:00,WNA/IAEA,600.0
234,Fukushima Daini-2,37.315,141.024,Japan,JP,Shutdown,BWR,BWR-5,1979-05-25,1984-02-03,2019-09-30,1067.0,2020-04-18T04:46:52+03:00,WNA/IAEA,351.0
727,Vandellos-2,40.949,0.867,Spain,ES,Operational,PWR,WH 3LP,1980-12-29,1988-03-08,,930.0,2017-02-10T23:56:13+02:00,WNA/IAEA,146.0
609,Sequoyah-2,35.228,-85.094,United States,US,Operational,PWR,WH 4LP (ICECND),1970-05-27,1982-06-01,,1148.0,2017-02-10T23:58:43+02:00,WNA/IAEA,664.0
375,Kashiwazaki Kariwa-5,37.434,138.598,Japan,JP,Suspended Operation,BWR,BWR-5,1985-06-20,1990-04-10,,1067.0,2022-09-24T22:33:57+03:00,WNA/IAEA,367.0
235,Fukushima Daini-3,37.315,141.024,Japan,JP,Shutdown,BWR,BWR-5,1981-03-23,1985-06-21,2019-09-30,1067.0,2020-04-18T04:46:52+03:00,WNA/IAEA,361.0
638,Sizewell-A1,52.212,1.621,United Kingdom,GB,Shutdown,GCR,MAGNOX,1961-04-01,1966-03-25,2006-12-31,290.0,2015-05-24T04:51:10+03:00,WNA/IAEA,235.0
319,Hongshiding-2 (Rushan-2),,,China,CN,Planned,PWR,,,,,,,WNA,
412,Kuosheng-1,25.203,121.662,Taiwan,TW,Shutdown,BWR,BWR-6,1975-11-19,1981-12-28,2021-12-28,948.0,2022-04-21T20:26:19+03:00,WNA/IAEA,556.0
730,Visaginas-2,55.6057,26.575842,Lithuania,LT,Planned,,,,,,,,WNA,
360,Kalinin-1,57.903,35.057,Russia,RU,Operational,PWR,VVER V-338,1977-02-01,1985-06-12,,950.0,2015-05-24T04:51:34+03:00,WNA/IAEA,489.0
260,Gravelines-2,51.014,2.138,France,FR,Operational,PWR,CP1,1975-03-01,1980-12-01,,910.0,2015-05-24T04:50:52+03:00,WNA/IAEA,175.0
629,Saeul-2,35.327,129.302,South Korea,KR,Operational,PWR,APR-1400,2009-08-19,2019-08-29,,1340.0,2022-12-30T01:45:43+02:00,WNA/IAEA,886.0
634,Sinop-1,42.0,35.0,Türkiye,TR,Planned,PWR,ATMEA-1,,,,,,Wikipedia,
284,Hamaoka-3,34.621,138.141,Japan,JP,Suspended Operation,BWR,BWR-5,1983-04-18,1987-08-28,,1056.0,2022-12-30T02:07:18+02:00,WNA/IAEA,362.0
378,Kewaunee,44.47,-87.498,United States,US,Shutdown,PWR,WH 2LP (DRYAMB),1968-08-06,1974-06-16,2013-05-07,535.0,2017-02-10T23:58:26+02:00,WNA/IAEA,647.0
386,Kola-1,67.467,32.491,Russia,RU,Operational,PWR,VVER V-230,1970-05-01,1973-12-28,,411.0,2015-05-24T04:51:32+03:00,WNA/IAEA,453.0
226,Fugen ATR,35.751,136.02,Japan,JP,Shutdown,HWLWR,ATR,1972-05-10,1979-03-20,2003-03-29,148.0,2015-05-24T04:51:28+03:00,WNA/IAEA,345.0
778,Zion-1,42.446,-87.801,United States,US,Shutdown,PWR,WH 4LP,1968-12-01,1973-12-31,1998-02-13,1040.0,2017-02-10T23:58:20+02:00,WNA/IAEA,640.0
663,Summer-3,34.295833,-81.320278,United States,US,Suspended Construction,PWR,AP-1000,2013-11-02,,,1117.0,2018-03-10T14:56:13+02:00,IAEA,1039.0
474,Nine Mile Point-2,43.522,-76.412,United States,US,Operational,BWR,BWR-5 (Mark 2),1975-08-01,1988-03-11,,1100.0,2015-05-24T04:51:48+03:00,WNA/IAEA,711.0
349,Kahl,50.059,8.987,Germany,DE,Decommissioning Completed,BWR,BWR,1958-07-01,,1985-11-25,15.0,2022-12-30T02:24:37+02:00,WNA/IAEA,82.0
507,Olkiluoto-3,61.234,21.435,Finland,FI,Operational,PWR,EPR,2005-08-12,,,1600.0,2022-04-21T20:26:19+03:00,WNA/IAEA,860.0
641,Sizewell-C1,52.21939,1.6228,United Kingdom,GB,Planned,PWR,,,,,,,WNA,
808,Tianwan-8,34.6828,119.456,China,CN,Under Construction,PWR,VVER-1200/V491,2022-02-25,,,1171.0,2022-04-21T20:26:19+03:00,Wikipedia/IAEA,1110.0
753,Xianning-2,29.66,114.67,China,CN,Planned,PWR,AP-1000,,,,,,WNA/Wikipedia,
735,Waterford-3,29.994,-90.471,United States,US,Operational,PWR,CE 2LP (DRYAMB),1974-11-14,1985-09-24,,1104.0,2017-02-10T23:58:56+02:00,WNA/IAEA,695.0
621,Shimane-3,35.537,132.999,Japan,JP,Under Construction,BWR,ABWR,2006-10-24,,,1325.0,2021-02-14T03:47:53+02:00,WNA/IAEA,862.0
691,Tianwan-4,34.6858,119.456,China,CN,Operational,PWR,VVER V-428M,2013-09-27,2018-12-22,,1060.0,2019-06-02T20:19:28+03:00,WNA/IAEA,974.0
648,South Texas-2,28.796,-96.044,United States,US,Operational,PWR,WH 4LP (DRYAMB),1975-12-22,1989-06-19,,1250.0,2017-02-10T23:59:21+02:00,WNA/IAEA,765.0
781,Barakah-4 (Braka),23.952748,52.203298,United Arab Emirates,AE,Under Construction,PWR,APR-1400,2015-07-30,,,1310.0,2023-08-28T08:01:45+03:00,IAEA,1053.0
558,Qinshan-2-1 (Qinshan 2),30.44,120.95,China,CN,Operational,PWR,CNP-600,1996-06-02,2002-04-15,,610.0,2015-05-24T04:50:40+03:00,WNA/IAEA,65.0
579,Ringhals-3,57.259,12.111,Sweden,SE,Operational,PWR,WH 3LP,1972-09-01,1981-09-09,,915.0,2023-08-28T08:01:45+03:00,WNA/IAEA,539.0
87,Bruce-5,44.341,-81.572,Canada,CA,Operational,PHWR,CANDU 750B,1978-05-31,1985-02-28,,822.0,2022-04-21T20:26:19+03:00,WNA/IAEA,38.0
244,G-3 (Marcoule),44.142,4.713,France,FR,Shutdown,GCR,,1956-03-01,1960-04-04,1984-06-20,36.0,2015-05-24T04:50:50+03:00,WNA/IAEA,161.0
161,Cruas-3,44.634,4.757,France,FR,Operational,PWR,CP2,1979-04-15,1984-09-10,,880.0,2015-05-24T04:50:59+03:00,WNA/IAEA,200.0
526,Paluel-3,49.857,0.635,France,FR,Operational,PWR,P4 REP 1300,1979-02-01,1986-02-01,,1330.0,2015-05-24T04:50:58+03:00,WNA/IAEA,193.0
36,Barseback-1,55.745,12.926,Sweden,SE,Shutdown,BWR,AA-II,1971-02-01,1975-07-01,1999-11-30,570.0,2018-03-10T14:52:00+02:00,WNA/IAEA,538.0
542,Pickering-2,43.812,-79.07,Canada,CA,Shutdown,PHWR,CANDU 500A,1966-09-01,1971-12-30,2007-05-28,508.0,2015-05-24T04:50:36+03:00,WNA/IAEA,50.0
172,Darlington-4,43.867,-78.724,Canada,CA,Operational,PHWR,CANDU 850,1985-07-01,1993-06-14,,881.0,2015-05-24T04:50:26+03:00,WNA/IAEA,46.0
657,St. Laurent-B2,47.72,1.581,France,FR,Operational,PWR,CP2,1976-07-01,1983-08-01,,880.0,2015-05-24T04:50:53+03:00,WNA/IAEA,177.0
693,Tianwan-6,34.6828,119.456,China,CN,Operational,PWR,CNP-1000,2016-09-07,2021-06-02,,1000.0,2021-06-29T00:12:17+03:00,WNA/Wikipedia/IAEA,976.0
685,Three Mile Island-1,40.154,-76.727,United States,US,Shutdown,PWR,B&W LLP (DRYAMB),1968-05-18,1974-09-02,2019-09-20,819.0,2019-11-22,WNA/IAEA,637.0
771,Zaporozhye-1,47.508,34.627,Ukraine,UA,Operational,PWR,VVER V-320,1980-04-01,1985-12-25,,950.0,2015-05-24T04:51:40+03:00,WNA/IAEA,584.0
97,Bugey-4,45.8,5.267,France,FR,Operational,PWR,CP0,1974-06-01,1979-07-01,,900.0,2015-05-24T04:50:51+03:00,WNA/IAEA,167.0
565,Quad Cities-2,41.727,-90.308,United States,US,Operational,BWR,BWR-3 (Mark 1),1967-02-15,1973-03-10,,789.0,2015-05-24T04:51:42+03:00,WNA/IAEA,621.0
242,Fuqing-6,25.720278,119.383889,China,CN,Operational,PWR,HPR1000,2015-12-22,2022-03-25,,1075.0,2022-09-24T22:33:57+03:00,WNA/Wikipedia/IAEA,938.0
576,Rheinsberg,53.147,12.991,Germany,DE,Shutdown,PWR,VVER-70,1960-01-01,1966-10-11,1990-06-01,62.0,2015-05-24T04:50:47+03:00,WNA/IAEA,122.0
462,Mochovce-3,48.261,18.455,Slovakia,SK,Operational,PWR,VVER V-213,1987-01-27,,,440.0,2023-08-28T08:01:45+03:00,WNA/IAEA,544.0
555,Prairie Island-1,44.622,-92.631,United States,US,Operational,PWR,WH 2LP (DRYAMB),1968-06-25,1973-12-16,,530.0,2017-02-10T23:58:12+02:00,WNA/IAEA,633.0
710,Trillo-1,40.699,-2.622,Spain,ES,Operational,PWR,PWR 3 loops,1979-08-17,1988-08-06,,990.0,2015-05-24T04:50:49+03:00,WNA/IAEA,141.0
208,Enrico Fermi-2,41.96,-83.257,United States,US,Operational,BWR,BWR-4 (Mark 1),1972-09-26,1988-01-23,,1093.0,2015-05-24T04:51:47+03:00,WNA/IAEA,674.0
394,Kozloduy-1,43.744,23.776,Bulgaria,BG,Shutdown,PWR,VVER V-230,1970-04-01,1974-10-28,2002-12-31,408.0,2015-05-24T04:50:16+03:00,WNA/IAEA,16.0
399,Kozloduy-6,43.744,23.776,Bulgaria,BG,Operational,PWR,VVER V-320,1982-04-01,1993-12-30,,1003.0,2020-04-18T04:46:52+03:00,WNA/IAEA,21.0
686,Three Mile Island-2,40.154,-76.727,United States,US,Shutdown,PWR,PWR,1969-11-01,1978-12-30,1979-03-28,906.0,2022-04-21T20:26:19+03:00,WNA/IAEA,657.0
219,Flamanville-2,49.537,-1.881,France,FR,Operational,PWR,P4 REP 1300,1980-05-01,1987-03-09,,1330.0,2015-05-24T04:51:00+03:00,WNA/IAEA,203.0
5,Akhvaz-2,,,Iran,IR,Planned,,,,,,,,WNA,
644,Smolensk-2,54.169,33.245,Russia,RU,Operational,LWGR,RBMK-1000,1976-06-01,1985-07-02,,925.0,2015-05-24T04:51:34+03:00,WNA/IAEA,487.0
729,Visaginas-1,55.6057,26.575842,Lithuania,LT,Planned,,,,,,,,WNA,
614,Shaoguan-4,,,China,CN,Planned,PWR,,,,,,,WNA,
548,Pickering-8,43.812,-79.07,Canada,CA,Operational,PHWR,CANDU 500B,1976-09-01,1986-02-28,,516.0,2015-05-24T04:50:23+03:00,WNA/IAEA,36.0
100,Bushehr-2,28.8287,50.8895,Iran,IR,Under Construction,PWR,V-528 VVER-1000 AES-92 GIII+,2019-09-27,,,974.0,2020-04-18T04:46:52+03:00,WNA/IAEA,311.0
575,Rancho Seco-1,38.345,-121.12,United States,US,Shutdown,PWR,PWR,1969-04-01,1975-04-17,1989-06-07,918.0,2022-04-21T20:26:19+03:00,WNA/IAEA,651.0
408,Kumharia-1,,,India,IN,Planned,PHWR,,,,,,,WNA,
504,Oldbury-A2,51.649,-2.567,United Kingdom,GB,Shutdown,GCR,MAGNOX,1962-05-01,1968-09-30,2011-06-30,300.0,2015-05-24T04:51:12+03:00,WNA/IAEA,238.0
48,Beloyarsk-3,56.842,61.321,Russia,RU,Operational,FBR,BN-600,1969-01-01,1981-11-01,,560.0,2015-05-24T04:51:34+03:00,WNA/IAEA,484.0
33,Barakah-3 (Braka),23.952748,52.203298,United Arab Emirates,AE,Operational,PWR,APR-1400,2014-09-24,2023-02-24,,1310.0,2023-08-28T08:01:45+03:00,WNA/IAEA,1052.0
202,EL-4 (Monts D'Arree),48.35,-3.866667,France,FR,Shutdown,HWGCR,Monts-D'Arree,1962-07-01,1968-06-01,1985-07-31,70.0,2015-05-24T05:20:27+03:00,IAEA,217.0
136,Chernobyl-2,51.389,30.103,Ukraine,UA,Shutdown,LWGR,RBMK,1973-02-01,1979-05-28,1991-10-11,925.0,2015-05-24T04:51:39+03:00,WNA/IAEA,569.0
28,Balakovo-3,52.092,47.952,Russia,RU,Operational,PWR,VVER V-320,1982-11-01,1989-04-08,,950.0,2015-05-24T04:51:36+03:00,WNA/IAEA,526.0
713,Tsuruga-1,35.672,136.079,Japan,JP,Shutdown,BWR,BWR-2,1966-11-24,1970-03-14,2015-04-27,341.0,2015-05-24T04:51:28+03:00,WNA/IAEA,355.0
232,Fukushima Daiichi-6,37.423,141.032,Japan,JP,Shutdown,BWR,BWR-5,1973-10-26,1979-10-24,2013-12-17,1067.0,2019-06-30T12:52:14+03:00,WNA/IAEA,342.0
491,Novovoronezh-3,51.275,39.206,Russia,RU,Shutdown,PWR,VVER V-179,1967-07-01,1972-06-29,2016-12-25,385.0,2017-02-10T23:57:16+02:00,WNA/IAEA,519.0
380,Khmelnitski-2,50.301,26.649,Ukraine,UA,Operational,PWR,VVER V-320,1985-02-01,2005-12-15,,950.0,2015-05-24T04:51:40+03:00,WNA/IAEA,574.0
290,Hanbit-3,35.405,126.41,South Korea,KR,Operational,PWR,OPR-1000,1989-12-23,1995-03-31,,950.0,2022-04-21T20:26:19+03:00,IAEA,396.0
420,Laguna Verde-2,19.719,-96.405,Mexico,MX,Operational,BWR,BWR-5,1977-06-01,1995-04-10,,780.0,2016-03-09T18:43:28+02:00,WNA/IAEA,421.0
677,Taohuajiang-3,,,China,CN,Planned,PWR,,,,,,,WNA,
393,Kori-4,35.321,129.295,South Korea,KR,Operational,PWR,WH F,1980-04-01,1986-04-29,,1012.0,2021-04-20T02:47:37+03:00,WNA/IAEA,410.0
594,San Onofre-2,33.368,-117.556,United States,US,Shutdown,PWR,CE (2-loop) DRYAMB,1974-03-01,1983-08-08,2013-06-07,1070.0,2015-05-24T04:54:11+03:00,WNA/IAEA,683.0
500,Ohi-3,35.544,135.652,Japan,JP,Operational,PWR,M (4-loop),1987-10-03,1991-12-18,,1127.0,2015-05-24T04:51:30+03:00,WNA/IAEA,378.0
140,Chin Shan-2,25.292,121.567,Taiwan,TW,Shutdown,BWR,BWR-4 (Mark 1),1973-12-07,1979-07-15,2019-07-16,604.0,2019-11-22,WNA/IAEA,555.0
63,Blayais-2,45.256,-0.691,France,FR,Operational,PWR,CP1,1977-01-01,1983-02-01,,910.0,2015-05-24T04:50:54+03:00,WNA/IAEA,188.0
473,Nine Mile Point-1,43.522,-76.412,United States,US,Operational,BWR,BWR-2 (Mark 1),1965-04-12,1969-12-01,,620.0,2015-05-24T04:51:41+03:00,WNA/IAEA,607.0
650,South Ukraine-2,47.811,31.22,Ukraine,UA,Operational,PWR,VVER V-338,1981-07-01,1985-04-06,,950.0,2015-05-24T04:51:40+03:00,WNA/IAEA,578.0
130,Chapelcross-4,55.014,-3.223,United Kingdom,GB,Shutdown,GCR,MAGNOX,1955-10-01,1960-03-01,2004-06-29,35.0,2015-05-24T04:51:18+03:00,WNA/IAEA,255.0
798,SNR-300 (Kalkar),51.763056,6.326944,Germany,DE,Never Commissioned,FBR,SNR-300,1973-04-23,,,295.0,2021-02-14T02:59:00+02:00,IAEA/Wikipedia,
522,Palo Verde-2,33.387,-112.863,United States,US,Operational,PWR,CE80 2LP (DRYAMB),1976-06-01,1986-09-19,,1304.0,2017-02-10T23:59:22+02:00,WNA/IAEA,790.0
65,Blayais-4,45.256,-0.691,France,FR,Operational,PWR,CP1,1978-04-01,1983-10-01,,910.0,2015-05-24T04:50:54+03:00,WNA/IAEA,190.0
15,Angra-3,-23.01,-44.47,Brazil,BR,Under Construction,PWR,PRE KONVOI,2010-05-30,,,1340.0,2023-08-28T08:01:45+03:00,WNA/IAEA,26.0
158,Cooper,40.361,-95.643,United States,US,Operational,BWR,BWR-4 (Mark 1),1968-06-01,1974-07-01,,778.0,2015-05-24T04:51:43+03:00,WNA/IAEA,642.0
41,Belarusian-2,54.766667,26.116667,Belarus,BY,Operational,PWR,VVER V-491,2014-04-27,,,1110.0,2023-08-28T08:01:45+03:00,IAEA,1061.0
494,Obrigheim,49.365,9.077,Germany,DE,Shutdown,PWR,,1965-03-15,1969-03-31,2005-05-11,283.0,2015-05-24T04:50:46+03:00,WNA/IAEA,121.0
381,Khmelnitski-3,50.303056,26.642778,Ukraine,UA,Under Construction,PWR,VVER,1986-03-01,,,1035.0,2017-09-25T03:20:02+03:00,IAEA,581.0
189,Dresden-1,41.353,-88.349,United States,US,Shutdown,BWR,,1956-05-01,1960-07-04,1978-10-31,192.0,2015-05-24T04:51:40+03:00,WNA/IAEA,597.0
218,Flamanville-1,49.537,-1.881,France,FR,Operational,PWR,P4 REP 1300,1979-12-01,1986-12-01,,1330.0,2015-05-24T04:51:00+03:00,WNA/IAEA,202.0
53,Beznau-1,47.552,8.229,Switzerland,CH,Operational,PWR,WH 2LP,1965-09-01,1969-12-09,,350.0,2022-04-21T20:26:19+03:00,WNA/IAEA,55.0
339,Indian Point-2,41.27,-73.95,United States,US,Shutdown,PWR,WH 4LP (DRYAMB),1966-10-14,1974-08-01,2020-04-30,873.0,2020-06-06T02:15:57+03:00,WNA/IAEA,611.0
297,Hanul-4,37.09,129.384444,South Korea,KR,Operational,PWR,OPR-1000,1993-11-01,1999-12-31,,950.0,2022-04-21T20:26:19+03:00,IAEA,399.0
704,Trawsfynydd-1,52.923,-3.947,United Kingdom,GB,Shutdown,GCR,MAGNOX,1959-07-01,1965-03-24,1991-02-06,250.0,2015-05-24T04:51:20+03:00,WNA/IAEA,273.0
253,Dodewaard,51.899,5.687,Netherlands,NL,Shutdown,BWR,GE design,1965-05-01,1969-03-26,1997-03-26,54.0,2021-06-07,WNA/IAEA,422.0
463,Mochovce-4,48.261,18.455,Slovakia,SK,Under Construction,PWR,VVER V-213,1987-01-27,,,440.0,2015-05-24T04:51:38+03:00,WNA/IAEA,545.0
457,Millstone-1,41.312,-72.166,United States,US,Shutdown,BWR,,1966-05-01,1971-03-01,1998-07-01,660.0,2015-05-24T04:51:41+03:00,WNA/IAEA,610.0
817,El Dabaa-2,31.044167,28.497778,Egypt,EG,Under Construction,PWR,VVER-1200,2022-11-19,,,1100.0,2023-08-28T08:01:45+03:00,IAEA/Wikipedia,138.0
271,Grosswelzheim,50.055,8.985,Germany,DE,Decommissioning Completed,BWR,Superheated steam reactor,1965-01-01,,1971-07-20,23.0,2022-12-30T02:21:21+02:00,WNA/IAEA,134.0
203,Elk River,45.297,-93.557,United States,US,Shutdown,BWR,,1959-01-01,1964-07-01,1968-02-01,22.0,2015-05-24T04:51:40+03:00,WNA/IAEA,596.0
163,Crystal River-3,28.966,-82.697,United States,US,Shutdown,PWR,B&W LLP (DRYAMB),1968-09-25,1977-03-13,2013-02-05,825.0,2017-02-10T23:58:22+02:00,WNA/IAEA,645.0
557,Qinshan-1,30.44,120.95,China,CN,Operational,PWR,CNP-300,1985-03-20,1994-04-01,,289.0,2023-08-28T08:01:45+03:00,WNA/IAEA,62.0
403,Kudankulam-2,8.167,77.713,India,IN,Operational,PWR,VVER V-412,2002-07-04,2017-03-31,,917.0,2017-09-25T03:20:10+03:00,WNA/IAEA,853.0
705,Trawsfynydd-2,52.922,-3.947,United Kingdom,GB,Shutdown,GCR,MAGNOX,1959-07-01,1965-03-24,1991-02-04,250.0,2015-05-24T04:51:20+03:00,WNA/IAEA,274.0
478,Ningde-4,27.046,120.287,China,CN,Operational,PWR,CPR-1000,2010-09-29,2016-07-21,,1018.0,2016-10-03T22:05:23+03:00,WNA/IAEA,924.0
107,Calder Hall-3,54.42,-3.491,United Kingdom,GB,Shutdown,GCR,MAGNOX,1955-08-01,1958-05-01,2003-03-31,35.0,2015-05-24T04:51:10+03:00,WNA/IAEA,233.0
567,Rajasthan-1,24.876,75.608,India,IN,Suspended Operation,PHWR,Horizontal Pressure Tube type,1965-08-01,1973-12-16,,207.0,2022-09-24T22:33:57+03:00,WNA/IAEA,302.0
391,Kori-2,35.321,129.295,South Korea,KR,Operational,PWR,WH F,1977-12-23,1983-07-25,,618.0,2022-04-21T20:26:19+03:00,WNA/IAEA,405.0
2,Akademik Lomonosov-1,69.709579,170.30625,Russia,RU,Operational,PWR,KLT-40S 'Floating',2007-04-15,2020-05-22,,30.0,2021-05-31,WNA/IAEA/Google Maps,895.0
760,Yangjiang-5,21.8575,111.9825,China,CN,Operational,PWR,ACPR-1000,2013-09-18,2018-07-12,,1021.0,2019-06-02T20:19:31+03:00,IAEA,933.0
563,Qinshan-3-2 (Qinshan 7),30.44,120.95,China,CN,Operational,PHWR,CANDU 6,1998-09-25,2003-07-24,,677.0,2015-05-24T04:51:50+03:00,WNA/IAEA,840.0
82,Browns Ferry-3,34.704,-87.119,United States,US,Operational,BWR,BWR-4 (Mark 1),1968-07-01,1977-03-01,,1065.0,2015-05-24T04:51:43+03:00,WNA/IAEA,641.0
207,Enrico Fermi-1,41.96,-83.257,United States,US,Shutdown,FBR,Liquid Metal FBR,1956-08-08,1966-08-07,1972-11-29,60.0,2017-02-10T23:57:45+02:00,WNA/IAEA,602.0
35,Chutka-2,,,India,IN,Planned,PHWR,,,,,,2021-06-07,WNA,
510,Onagawa-2,38.4,141.504,Japan,JP,Suspended Operation,BWR,BWR-5,1991-04-12,1995-07-28,,796.0,2023-08-28T08:01:45+03:00,WNA/IAEA,382.0
429,Leningrad-1,59.837,29.039,Russia,RU,Shutdown,LWGR,RBMK-1000,1970-03-01,1974-11-01,2018-12-22,925.0,2019-06-02T20:19:08+03:00,WNA/IAEA,474.0
456,Mihama-3,35.701,135.962,Japan,JP,Operational,PWR,M (3-loop),1972-08-07,1976-12-01,,780.0,2015-05-24T04:51:27+03:00,WNA/IAEA,338.0
368,Kaminoseki-2,,,Japan,JP,Planned,ABWR,,,,,,,WNA,
93,Brunswick-2,33.958,-78.007,United States,US,Operational,BWR,BWR-4 (Mark 1),1970-02-07,1975-11-03,,821.0,2015-05-24T04:51:46+03:00,WNA/IAEA,661.0
341,Isar-1,48.607,12.296,Germany,DE,Shutdown,BWR,BWR-69,1972-05-01,1979-03-21,2011-08-06,870.0,2015-05-24T04:50:42+03:00,WNA/IAEA,89.0
566,R. E. Ginna,43.279,-77.311,United States,US,Operational,PWR,WH 2LP (DRYAMB),1966-04-25,1970-07-01,,470.0,2017-02-10T23:57:51+02:00,WNA/IAEA,609.0
347,JPDR,36.4625,140.61,Japan,JP,Shutdown,BWR,BWR-1,1960-12-01,1965-03-15,1976-03-18,10.0,2015-05-24T04:51:26+03:00,IAEA,333.0
243,G-2 (Marcoule),44.142,4.713,France,FR,Shutdown,GCR,,1955-03-01,1959-04-22,1980-02-02,36.0,2015-05-24T04:50:51+03:00,WNA/IAEA,172.0
14,Angra-2,-23.008,-44.457,Brazil,BR,Operational,PWR,PRE KONVOI,1976-01-01,2001-02-01,,1245.0,2015-05-24T04:50:19+03:00,WNA/IAEA,25.0
317,Hinkley Point-C2,51.2087,-3.1305,United Kingdom,GB,Under Construction,PWR,EPR-1750,2019-12-12,,,1630.0,2020-04-18T04:46:52+03:00,WNA/IAEA,1073.0
602,Santa Maria de Garona,42.775,-3.205,Spain,ES,Shutdown,BWR,BWR-3,1966-09-01,1971-05-11,2017-08-02,440.0,2017-09-25T03:19:35+03:00,WNA/IAEA,149.0
389,Kola-4,67.467,32.491,Russia,RU,Operational,PWR,VVER V-213,1976-08-01,1984-12-06,,411.0,2015-05-24T04:51:34+03:00,WNA/IAEA,492.0
275,H. B. Robinson-2,34.402,-80.158,United States,US,Operational,PWR,WH 3LP (DRYAMB),1967-04-13,1971-03-07,,700.0,2017-02-10T23:58:01+02:00,WNA/IAEA,619.0
168,Darkhovin,30.707778,48.38,Iran,IR,Unknown,PWR,,,,,,,Wikipedia,
813,Jiaodong Shipyard FNPP,,,China,CN,Planned,PWR,ACP100S,,,,,2021-05-29,WNA,
649,South Ukraine-1,47.811,31.22,Ukraine,UA,Operational,PWR,VVER V-302,1976-08-01,1983-12-02,,950.0,2015-05-24T04:51:40+03:00,WNA/IAEA,577.0
486,North Anna-2,38.061,-77.792,United States,US,Operational,PWR,WH 3LP (DRYSUB),1971-02-19,1980-12-14,,907.0,2017-02-10T23:58:50+02:00,WNA/IAEA,673.0
802,Changjiang-3,19.46075,108.899917,China,CN,Under Construction,PWR,HPR1000,2021-03-31,,,1000.0,2021-06-29T00:12:17+03:00,IAEA/Wikipedia,941.0
506,Olkiluoto-2,61.235,21.444,Finland,FI,Operational,BWR,"AA-III, BWR-2500",1975-11-01,1982-07-10,,660.0,2018-03-10T14:51:33+02:00,WNA/IAEA,160.0
245,Garigliano,41.258,13.835,Italy,IT,Shutdown,BWR,BWR-1,1959-11-01,1964-06-01,1982-03-01,150.0,2015-05-24T04:51:26+03:00,WNA/IAEA,325.0
568,Rajasthan-2,24.876,75.608,India,IN,Operational,PHWR,Horizontal Pressure Tube type,1968-04-01,1981-04-01,,207.0,2015-05-24T04:54:06+03:00,WNA/IAEA,303.0
564,Quad Cities-1,41.727,-90.308,United States,US,Operational,BWR,BWR-3 (Mark 1),1967-02-15,1973-02-18,,789.0,2015-05-24T04:51:41+03:00,WNA/IAEA,615.0
689,Tianwan-2,34.69,119.456,China,CN,Operational,PWR,VVER V-428,2000-09-20,2007-08-16,,990.0,2015-05-24T04:51:50+03:00,WNA/IAEA,839.0
191,Dresden-3,41.353,-88.349,United States,US,Operational,BWR,BWR-3 (Mark 1),1966-10-14,1971-11-16,,794.0,2015-05-24T04:51:41+03:00,WNA/IAEA,612.0
702,Torness-1,55.966,-2.399,United Kingdom,GB,Operational,GCR,AGR,1980-08-01,1988-05-25,,645.0,2015-05-24T04:51:18+03:00,WNA/IAEA,261.0
477,Ningde-3,27.046,120.287,China,CN,Operational,PWR,CPR-1000,2010-01-08,2015-06-10,,1018.0,2015-08-23T03:28:29+03:00,WNA/IAEA,923.0
684,Temelin-2,49.181,14.377,Czechia,CZ,Operational,PWR,VVER V-320,1987-02-01,2003-04-18,,1029.0,2021-02-14T03:47:53+02:00,WNA/IAEA,75.0
512,Oskarshamn-1,57.415,16.666,Sweden,SE,Shutdown,BWR,AA-I,1966-08-01,1972-02-06,2017-06-19,440.0,2018-03-10T14:51:55+02:00,WNA/IAEA,534.0
59,Bilibino-2,68.059,166.492,Russia,RU,Operational,LWGR,EGP-6,1970-01-01,1975-02-01,,11.0,2015-05-24T04:51:32+03:00,WNA/IAEA,468.0
476,Ningde-2,27.046,120.287,China,CN,Operational,PWR,CPR-1000,2008-11-12,2014-05-04,,1018.0,2015-05-24T04:51:56+03:00,WNA/IAEA,922.0
562,Qinshan-3-1 (Qinshan 6),30.44,120.95,China,CN,Operational,PHWR,CANDU 6,1998-06-08,2002-12-31,,677.0,2015-05-24T04:50:40+03:00,WNA/IAEA,69.0
757,Yangjiang-2,21.706,112.256,China,CN,Operational,PWR,CPR-1000,2009-06-04,2015-06-05,,1000.0,2015-08-23T03:28:27+03:00,WNA/IAEA,882.0
254,Goesgen,47.366,7.969,Switzerland,CH,Operational,PWR,PWR 3 Loop,1973-12-01,1979-11-01,,920.0,2022-04-21T20:26:19+03:00,WNA/IAEA,58.0
22,Asco-1,41.202,0.571,Spain,ES,Operational,PWR,WH 3LP,1974-05-16,1984-12-10,,888.0,2023-08-28T08:01:45+03:00,WNA/IAEA,155.0
315,Hinkley Point-B2,51.209,-3.131,United Kingdom,GB,Shutdown,GCR,AGR,1967-09-01,1976-09-27,2022-07-06,625.0,2022-09-24T22:33:57+03:00,WNA/IAEA,245.0
461,Mochovce-2,48.261,18.455,Slovakia,SK,Operational,PWR,VVER V-213,1983-10-13,2000-04-11,,408.0,2021-10-01T00:14:53+03:00,WNA/IAEA,551.0
162,Cruas-4,44.634,4.757,France,FR,Operational,PWR,CP2,1979-10-01,1985-02-11,,880.0,2015-05-24T04:51:00+03:00,WNA/IAEA,201.0
278,Haiyang-2,36.704,121.382,China,CN,Operational,PWR,AP-1000,2010-06-20,2019-01-09,,1126.0,2019-06-02T20:18:37+03:00,WNA/IAEA,909.0
193,Dukovany-1,49.089,16.149,Czechia,CZ,Operational,PWR,VVER V-213,1979-01-01,1985-05-03,,420.0,2023-08-28T08:01:45+03:00,WNA/IAEA,78.0
387,Kola-2,67.467,32.491,Russia,RU,Operational,PWR,VVER V-230,1970-05-01,1975-02-21,,411.0,2015-05-24T04:51:32+03:00,WNA/IAEA,460.0
415,Kursk-2,51.674,35.607,Russia,RU,Operational,LWGR,RBMK-1000,1973-01-01,1979-08-17,,925.0,2015-05-24T04:51:34+03:00,WNA/IAEA,485.0
493,Novovoronezh-5,52.381,39.211,Russia,RU,Operational,PWR,VVER V-187,1974-03-01,1981-02-20,,950.0,2015-05-24T04:51:34+03:00,WNA/IAEA,483.0
345,Java-1 (Muria),,,Indonesia,ID,Planned,,,,,,,,WNA,
786,Rooppur-1,24.066667,89.047222,Bangladesh,BD,Under Construction,PWR,VVER V-523,2017-11-30,,,1080.0,2018-03-10T20:52:25+02:00,IAEA,1078.0
310,Higashi Dori-2 (Tohoku),41.1856,141.39,Japan,JP,Planned,ABWR,,,,,,,WNA,
664,Super-Phenix,45.76,5.474,France,FR,Shutdown,FBR,Na-1200,1976-12-13,1986-12-01,1998-12-31,1200.0,2015-05-24T04:50:53+03:00,WNA/IAEA,178.0
132,CHASNUPP-2,32.392,71.463,Pakistan,PK,Operational,PWR,CNP-300,2005-12-28,2011-05-18,,300.0,2021-06-07,WNA/IAEA,429.0
666,Surry-2,37.166,-76.7,United States,US,Operational,PWR,WH 3LP (DRYSUB),1968-06-25,1973-05-01,,788.0,2017-02-10T23:58:11+02:00,WNA/IAEA,632.0
101,Bushehr-3,28.8305,50.8872,Iran,IR,Planned,,,,,,,,WNA,
374,Kashiwazaki Kariwa-4,37.434,138.598,Japan,JP,Suspended Operation,BWR,BWR-5,1990-03-05,1994-08-11,,1067.0,2022-09-24T22:33:57+03:00,WNA/IAEA,381.0
89,Bruce-7,44.341,-81.572,Canada,CA,Operational,PHWR,CANDU 750B,1979-05-01,1986-04-10,,822.0,2015-05-24T04:50:24+03:00,WNA/IAEA,41.0
460,Mochovce-1,48.261,18.455,Slovakia,SK,Operational,PWR,VVER V-213,1983-10-13,1998-10-29,,408.0,2021-10-01T00:14:53+03:00,WNA/IAEA,550.0
332,Ignalina-1,55.604,26.562,Lithuania,LT,Shutdown,LWGR,RBMK-1500,1977-05-01,1985-05-01,2004-12-31,1500.0,2022-04-21T20:26:19+03:00,WNA/IAEA,415.0
216,Fessenheim-2,47.903,7.564,France,FR,Shutdown,PWR,CP0,1972-02-01,1978-04-01,2020-06-30,880.0,2020-08-31T01:39:56+03:00,WNA/IAEA,164.0
468,Narora-1,28.156,78.409,India,IN,Operational,PHWR,Horizontal Pressure Tube type,1976-12-01,1991-01-01,,202.0,2015-05-24T04:54:06+03:00,WNA/IAEA,306.0
123,Cernavoda-2,44.322,28.061,Romania,RO,Operational,PHWR,CANDU 6,1983-07-01,2007-11-01,,650.0,2019-06-02T20:18:16+03:00,WNA/IAEA,443.0
616,Shidao Bay-1,36.979167,122.530556,China,CN,Operational,HTGR,HTR-PM,2012-12-09,,,200.0,2022-01-05T00:04:08+02:00,IAEA/wikipedia,957.0
21,Armenian-3,40.1808,44.1472,Armenia,AM,Planned,PWR,,,,,,2021-06-07,WNA,
703,Torness-2,55.966,-2.399,United Kingdom,GB,Operational,GCR,AGR,1980-08-01,1989-02-03,,645.0,2015-05-24T04:51:18+03:00,WNA/IAEA,262.0
72,Borssele,51.431,3.719,Netherlands,NL,Operational,PWR,KWU 2LP,1969-07-01,1973-10-26,,495.0,2017-02-10T23:57:03+02:00,WNA/IAEA,423.0
108,Calder Hall-4,54.42,-3.491,United Kingdom,GB,Shutdown,GCR,MAGNOX,1955-08-01,1959-04-01,2003-03-31,35.0,2015-05-24T04:51:10+03:00,WNA/IAEA,234.0
272,Gundremmingen-A,48.513,10.401,Germany,DE,Shutdown,BWR,,1962-12-12,1967-04-12,1977-01-13,237.0,2015-05-24T04:50:46+03:00,WNA/IAEA,104.0
437,Lingao-1,22.606,114.55,China,CN,Operational,PWR,M310,1997-05-15,2002-05-28,,950.0,2015-05-24T04:50:40+03:00,WNA/IAEA,67.0
104,Byron-2,42.074,-89.277,United States,US,Operational,PWR,WH 4LP (DRYAMB),1975-04-01,1987-08-02,,1120.0,2017-02-10T23:59:18+02:00,WNA/IAEA,736.0
